Seismic Zone,PGA (m/s²),PGV (m/s),PGD (m),Spectral Acceleration (g),Soil Type,Site Amplification Factor,Historical Earthquake Magnitude (Mw),Fault Distance (km),Seismic Wave Frequency (Hz),Building Height (m),Number of Stories,Structural Material,Foundation Type,Natural Frequency (Hz),Damping Ratio (%),Mass of Structure (kg),Axial Stiffness (kN/m),Bending Stiffness (kN·m²),Lateral Load Resisting System,Predicted Max Inter-Story Drift Ratio (%),Predicted Max Roof Displacement (m),Predicted Base Shear Force (kN),Predicted Structural Acceleration (m/s²),Predicted Damage Index (0–1 Scale),Predicted Collapse Probability (%)
High,0.9968612569684422,0.970065089424653,0.4271174981887846,1.7765005553822812,Soft Soil,0.9145592936867935,4.754320608585408,40.79324053690674,8.299908291678285,152.71441544960868,4,Steel,Shallow,2.4459950333386122,3.2832486557966076,656711.5720328263,5181.8382210451155,30883.674994561432,Shear Wall,2.6915804360060327,1.2036609123706026,3381.819136650593,0.280573921556379,0.19133920300134066,19.133920300134065
Low,1.0332406706652668,0.5303910894686008,0.007601177639741699,1.495443315747319,Rock,0.8282076289233329,4.9652772148351865,84.72874295425055,2.5933482872225193,28.005904890220016,45,Steel,Pile,2.924171774990337,5.445022169856232,212507.08790668406,5942.2270376851,25605.84273531793,Shear Wall,2.1457149765228376,1.5955339274871663,252.3261885538841,1.3406789758167625,0.2566878187025806,25.668781870258062
Very High,0.3277796413319922,1.266543582017942,0.2563784478281709,0.5785114141665629,Sand,2.550197662238626,6.441786539314391,35.280339028005116,7.795291266624791,167.47584409750115,23,Composite,Deep,3.9977804172227414,6.568186147407741,867409.1346841155,2080.991762463299,36208.13135553178,Moment Frame,4.000580123518645,1.5055771518018315,1786.167449469913,4.603057782073413,0.12484249980879447,12.484249980879447
Low,0.8911194374338587,0.5804304246752112,0.38495184713135683,0.21911678272602209,Rock,1.8497220271759085,5.534632668877347,65.80749815803082,9.575360250400509,142.59586181512807,43,Steel,Shallow,2.8868407660605953,1.5903177819817342,555412.8047301952,8996.188283206031,8652.08299039087,Shear Wall,2.7590048759048957,0.16814431166969498,3426.7562422684073,4.335223344354426,0.7133814098857485,71.33814098857485
Very High,1.1802776753700508,1.197500333254403,0.4674629632288989,0.19626344754184866,Soft Soil,1.0879385048178671,6.821756453364405,71.22211518554485,6.998275588246979,117.5816364132922,45,Steel,Pile,1.9198371848939955,7.345719353654125,440394.7415596151,2697.0108466665724,46101.61078769732,Moment Frame,4.689859612572905,1.90099987513178,2889.715110440337,3.9290291221506126,0.361551926536133,36.1551926536133
Very High,0.7984539303503186,0.7824966192671116,0.45469186596703703,0.3046428541594075,Clay,1.3182450561079029,5.640721889657357,59.0320530547458,6.000698593403031,178.49839028269605,43,Concrete,Shallow,0.6120429325787949,5.8918248788253385,621950.9892806929,2301.6524851855975,32538.00707995173,Moment Frame,1.061089914418893,1.409096439898656,4891.433178788802,2.3419814226353233,0.2202661531837884,22.026615318378838
Very High,0.1169443634865504,1.6647492305624563,0.40999280990427484,1.0873065921445169,Soft Soil,2.851508696814242,8.732417854963265,36.366954848843484,4.657823139182901,141.5597390073424,8,Concrete,Pile,3.7035950216603726,5.732013761364571,653206.0273236748,2667.1628315431176,14276.732847425255,Braced Frame,4.951736667886695,1.8987329869182006,4337.271122215188,1.6749290949980384,0.5073241491809525,50.732414918095245
High,0.11265385671100905,1.6593227054568807,0.44420748348099076,1.678897816049337,Sand,2.6909065463747757,8.576747855668192,58.128280829640886,3.7076576733544924,44.331492713049954,39,Composite,Raft,4.381463120778345,3.628410022881236,90644.11693460442,9236.406175089583,7039.431698764893,Braced Frame,1.5598040521293213,0.6649045403584631,345.7051083697419,4.419574603948238,0.06824930568524767,6.824930568524767
High,0.5998410815580171,1.0069657564325625,0.10041062323270117,0.9444638276101736,Clay,2.36152711049274,7.050627472547097,34.884293686184876,3.594747034621179,88.800349309755,25,Concrete,Deep,4.856309777696787,6.353407895415192,999898.0333697968,7177.043718180067,8336.552643163326,Braced Frame,3.2478774705091995,1.3909388646858067,3642.5566275781853,3.31966304231914,0.9234066063183948,92.34066063183948
High,1.3966716958044947,0.7665563077365296,0.14280796356015266,1.5330073201755352,Sand,1.8608955067421185,6.094907963943237,9.303500116649197,6.400089786524947,101.338359052468,16,Concrete,Shallow,4.647679427703528,1.2474360066859718,395723.5979642517,7801.665747657613,39350.483417909294,Braced Frame,2.5590831967215917,1.7212781059996356,1714.8167310358656,1.5479933897341882,0.29446752115726427,29.446752115726426
Low,0.42014749144505226,0.7888636134622796,0.1451952939356082,0.8580072537616733,Clay,1.9447119776210486,6.21516096915631,99.28759384041543,7.537603857683684,15.767437216329101,35,Steel,Pile,4.027605962399593,1.5823029745358963,108465.51456440138,4081.845402750401,29817.39261233494,Braced Frame,1.8619243661213223,0.7671238040770436,3426.3093802754347,2.3696598020306965,0.8864643481838621,88.64643481838621
Very High,0.9881091644203619,1.630857598769614,0.1891499115698477,1.304592027805303,Rock,2.945537977624709,6.353335274150236,13.59106290961858,6.817318987895702,191.15431510521088,17,Masonry,Shallow,3.2886652747794956,7.604830784915574,859707.0160367395,9137.181641840332,19657.156245190985,Moment Frame,0.7826149980006885,1.9300712383494545,3105.2617011524117,4.419351089081934,0.497620065324647,49.762006532464696
High,0.41090621897064883,0.7235410173154627,0.19726701452220916,1.3441836533870515,Rock,2.9246949765454318,7.774106949607248,8.162489999769678,2.064260001816271,30.072565855391304,18,Concrete,Shallow,3.951008699987064,3.897022082805675,993367.7452516967,7999.375547224203,17312.141463157117,Moment Frame,0.7606873421158372,0.5373356545288765,2540.0987827768636,4.526931636783286,0.8501504977106406,85.01504977106406
High,0.5503379855233681,0.49721281004300744,0.27273310700268305,0.39573830003567567,Rock,1.2735919007288354,6.532375479834771,87.97454417150844,4.990473083420563,141.00494710921174,27,Masonry,Deep,2.274001821689926,4.122703680620354,825540.5837552857,7630.674943819552,42932.14221562598,Shear Wall,3.5863785541531574,0.6380711157822292,4272.100293980797,3.3305802604614745,0.2470644407896445,24.706444078964452
Low,1.2872589254420777,0.260907849563083,0.08078000191985425,0.71406730025888,Soft Soil,2.5844300458717,8.355284759276538,30.881631428396616,7.9372367146123235,103.71505203772163,15,Concrete,Raft,3.054925830996008,2.8754668293080665,859288.3653668534,9723.932694893041,43863.36366529159,Moment Frame,1.9504427765839258,1.841453867487807,3558.0148077086806,3.6895237175134663,0.17527060224275304,17.527060224275303
High,1.1204060191779257,0.9867169296803759,0.34593208522920865,1.1834136661146406,Sand,1.233933865567437,8.74842653668664,65.37940043327725,4.8094703740716565,9.998288727462405,17,Concrete,Shallow,1.8737590838680889,5.010586228899389,644638.3585084784,3978.869892536812,29481.83988254535,Moment Frame,4.810360073251419,1.9396228955403796,4453.297816784932,0.29255938282113736,0.8494118032348283,84.94118032348284
Low,0.23355898823849489,1.0160509879476995,0.08461570311294873,0.2201842339134225,Soft Soil,1.2697824513446931,6.011757690205203,33.57156723656105,5.4125704693813885,185.32575779355054,43,Composite,Pile,1.768204231905837,1.4679408827017029,926209.2993098862,6304.249644560871,26702.65921758678,Braced Frame,1.6956775838810567,0.577539539127248,1443.938558060094,3.062542487422222,0.2129238823717109,21.29238823717109
Moderate,0.700182829381007,1.6977265497655236,0.1558439325701692,0.7146183191970262,Rock,2.287404675162069,7.02312516619056,39.75397280865264,7.734246876891139,171.10817771969198,5,Composite,Pile,3.832120511724962,3.703269012140023,83951.62414109416,9144.332140283554,41005.954061752,Moment Frame,4.919266236565018,0.2814161788892883,1773.2312467432803,3.4760635850177874,0.7461953492995801,74.61953492995801
High,0.14083766910337026,0.5203535232475215,0.25216922017247084,1.0091590926780272,Sand,1.6910024168926066,4.92775441574654,26.949184229662855,6.646526532024406,107.23029594124793,16,Composite,Raft,2.3788773550570963,5.744115295999277,778387.669806491,8013.444960266549,37717.42380992439,Braced Frame,1.1065739573167874,1.5205202653240892,3128.659181561821,0.19984802069313506,0.3445837946596324,34.45837946596324
Moderate,0.7732462052442125,0.8238834199699597,0.39842384020021515,1.7935816381758858,Rock,2.8493976956343445,5.402110714948615,34.96135657350801,4.152514716735687,49.64375554719182,15,Masonry,Pile,1.21837406206894,5.190687294032233,687174.7169173718,5852.1001031433425,20615.933983061634,Shear Wall,0.6037904925321624,1.860033879937892,4833.9989649405925,4.234909040985652,0.7481937264351614,74.81937264351613
Low,1.0274076163814954,1.6359709038980128,0.3699951473861249,0.9067070564581492,Soft Soil,0.9958214167712195,6.36059595019572,41.659339658067765,8.964585840822767,28.71646368261838,42,Steel,Raft,1.1693031773209561,9.997026788107304,97105.72199780212,1224.030005411889,5054.195552791993,Shear Wall,1.6315916942624902,1.2054201509667306,1889.3313917190471,4.648596557088632,0.9076462659883302,90.76462659883302
Very High,0.26590367303741214,1.6648848604230497,0.3231216438488506,1.4872964870943501,Soft Soil,1.9253564097808848,5.427912221558005,72.32119084014195,1.7094139797684382,75.86153348926469,46,Concrete,Pile,4.324027335535681,4.49888186905219,566774.9000276554,6700.872675778895,38656.50526077612,Moment Frame,4.439365468200086,1.272692719268431,209.85356783408136,1.2658886168520616,0.9816384312872931,98.16384312872931
High,0.504438914472832,0.8307610443596595,0.07873085702950491,0.8345143846132501,Soft Soil,2.8207473669748673,8.444522208549229,51.642083229244385,9.955612841044214,54.80851480398765,34,Concrete,Deep,3.4532503729408215,4.48299153328878,539307.3284699761,5502.277790244596,9266.350418071943,Shear Wall,2.6570745280268953,1.5282572350028774,2257.1453793386854,4.244400070215126,0.35980947726863344,35.98094772686334
Low,0.6569712757030196,0.9723356442446937,0.2739756274621733,1.4538642284535053,Rock,2.7890500530549116,5.212288152265941,94.41295649854072,1.2766405269147485,103.80478419622825,48,Concrete,Shallow,2.821021152118956,5.532235996730143,706957.5138231278,2249.7143841039506,1802.4684174454385,Moment Frame,0.7646855190923195,0.3146387894944024,2742.4513345186647,3.361011655274905,0.3675258346405462,36.752583464054624
Very High,1.3873434345184696,0.6762431926136375,0.04463580439814284,1.1122051627541842,Sand,1.1443642695146308,6.550473696988914,5.146158990038775,0.24800471393196513,193.44981274406865,19,Masonry,Deep,2.124505932782525,2.712727992441068,123654.84102871391,8881.404671754675,42321.83108499555,Shear Wall,1.0922453430600658,1.9472031040245312,4014.887673062739,2.945409516775973,0.9813877367848546,98.13877367848546
Very High,1.4905570215921495,1.8718542689966928,0.18930422522152873,1.6072122505540771,Sand,1.6066029402122042,7.225646582069441,50.80376394057079,8.91118712137277,117.11593117978008,8,Composite,Shallow,2.2679234757782036,8.88673980663242,815014.8460619914,3760.861651538061,29334.438421499213,Braced Frame,1.6251772445328603,0.7350154756099037,3656.5723759833627,4.231317271076827,0.8615281302980383,86.15281302980384
Moderate,0.1628758185938622,0.3254231549090026,0.20734474861468963,0.7986023389951868,Rock,2.162067080102732,7.6133875867238,58.838254094340094,2.5250397328229655,178.5365558985691,47,Steel,Shallow,0.47568893213573027,6.150410099780037,182433.26991092943,4181.058988414321,44691.63574125216,Braced Frame,2.9918170152822685,1.2601984476251025,4825.080269555764,1.4994916251514983,0.04509197191137804,4.509197191137804
Low,1.1654110928935488,1.874123903702793,0.02086590828343116,1.1273175136965141,Sand,1.1506687464970848,6.2238121637692805,92.09950162135311,7.324026311722537,131.92137331167658,10,Masonry,Shallow,2.3835686953656454,2.7289687527948017,447731.38278877904,6887.8147135659,24744.816076683284,Braced Frame,1.7286568054003415,0.9425458807949858,3924.279664754508,3.975195270665585,0.5734499862265204,57.34499862265204
Very High,0.6204136929632805,1.399346258487152,0.13772006163551595,1.1710317570520066,Rock,2.929648778500625,8.410945809261278,5.866693838521331,8.129052211827487,97.67307268450409,5,Composite,Deep,4.018183570985992,8.14097432234919,887223.6071265542,5143.588049391789,46397.573934858745,Braced Frame,3.7605650022377035,0.9416801497320415,1528.2107634860192,1.6411517615741962,0.18124477154843832,18.12447715484383
High,0.649441460721272,1.1099870901047892,0.4778690841659782,0.8095510010608046,Sand,2.812448523200853,7.057436179850665,57.776458908586385,8.603965271217957,171.6484747330074,48,Masonry,Shallow,2.062335104457547,1.3089895402856793,582505.0252207216,1348.1702246519192,18344.615650964326,Moment Frame,3.1198384253079534,1.4084613005182456,3224.83253935184,3.958537060249562,0.9940125360932185,99.40125360932186
High,1.1559709626858319,0.16205221549054216,0.47686267130701504,0.34533047426871855,Clay,1.1672903938758323,6.4777850120139835,85.50936292426775,9.91678293307525,96.91678148373451,26,Steel,Deep,2.041190012207638,9.843077805268845,410611.3680669976,4180.695364874729,36501.578114380354,Shear Wall,4.381736313031366,1.9893779747557863,3377.593907312934,2.310164628206642,0.1389230123709737,13.89230123709737
Moderate,1.3857970050035722,1.0036327644618157,0.17681120007201712,0.25905099175097046,Clay,1.066542014774168,4.802582853234165,24.95084508380442,3.010993129395991,174.3824932495204,22,Composite,Raft,0.27543959849258143,8.786344012942342,95792.12994354495,1397.4281204132146,15748.338953827391,Moment Frame,2.5547129491608853,1.3215291024869436,4990.201548361589,0.6730328103160942,0.5593476125428666,55.934761254286656
Very High,1.4313000323035678,0.8747213995051912,0.022506954365213706,0.1283416360193763,Soft Soil,0.9878986621781837,6.591102608003243,87.7529425038698,7.1314090850798655,61.85747006727423,44,Masonry,Pile,2.3976092602787293,6.2167550998061785,688659.8413416356,2312.1288296721214,1057.019552070943,Braced Frame,1.7227644290952324,1.5901776718297431,736.7526605725491,1.9694473154993537,0.6651983700291831,66.51983700291831
Low,0.907971620453649,0.40631574275273286,0.0903683747247626,1.585008249216865,Clay,2.8007760608805885,8.193311283670786,2.8852975181548906,1.2424585969801996,30.118549383782682,23,Steel,Pile,0.32162073415024095,2.001660964813598,987219.4270414448,568.1571643293114,19607.48219289888,Moment Frame,4.981730682235701,0.06495595395191754,997.0612383177611,1.2441170637177783,0.9370646546540563,93.70646546540563
High,0.5999696230207039,1.347178246651248,0.19671667892333652,0.5020073508057807,Clay,1.2259723815500139,7.265434581995919,73.51300828423925,4.1274119844328085,171.78632055077298,13,Concrete,Shallow,2.9376772544420535,2.937454959607043,916206.5788204637,2222.474274104291,37150.5101423527,Shear Wall,1.8426032768560434,1.6227504644389883,819.7925378430102,0.5926045988524737,0.847258311644187,84.7258311644187
Very High,1.202568720202291,1.9451867239997431,0.4739420692866457,0.4595614737790057,Clay,1.7158268427975805,8.244731041781034,93.37820889569664,8.494919763794645,119.54595693957002,9,Steel,Deep,2.6325602315951078,3.514916532822068,731431.2736947566,3639.2498629844285,8351.184792879183,Moment Frame,2.2001529349245095,0.6069520047189113,2965.847565121521,0.6404066352759584,0.245754771327783,24.5754771327783
Very High,0.4514019365672204,1.1681587410225978,0.07145833270505528,1.3512601807243114,Rock,1.7874730044344067,6.723052517696875,66.06256850236616,3.739814655985173,178.37301765854724,49,Concrete,Pile,4.232040794835195,3.169285641132499,150028.21534314778,5613.075120456799,25735.299627162258,Shear Wall,4.064723404254633,0.2621366716189831,719.7403075583995,3.9223498526698446,0.5726239512925045,57.26239512925046
Moderate,0.8897036403669248,1.458031225243497,0.3819944059904379,0.644027392248566,Clay,2.1178242972698484,5.0330776729251685,44.463895154064346,5.951844267302579,187.87630536351472,20,Masonry,Deep,2.992546932443462,5.477680094081012,277468.08873037447,9233.133506235956,11403.752757685035,Moment Frame,0.5343175460761538,0.23553483004093465,3297.2381590774507,4.418849477360091,0.9535739579058833,95.35739579058833
High,0.6020098461348223,0.2300558598754319,0.05523258714797135,0.9602759771001221,Clay,0.957817756244335,4.561379306261465,5.443220630799084,5.087357092873877,15.45753612243259,28,Composite,Deep,1.752451305546633,9.50104333240433,227506.56848062266,5633.105238799525,4656.581949536043,Shear Wall,1.993801519686722,1.3629508801975572,4028.681551777883,4.642932685219269,0.7357168471049377,73.57168471049377
High,1.0192835031910266,0.8935672920522899,0.49064753111824716,0.37626881100567566,Soft Soil,1.2988689582811352,5.86448796023366,92.09126751894024,6.494920158009246,102.68901386247933,44,Composite,Shallow,2.677908845201188,4.997553262910294,387688.55824286304,7203.233642961245,31255.1471152715,Shear Wall,0.5199794578475914,1.9952575037206943,2192.324974823959,4.284336244419228,0.6883363483798938,68.83363483798938
Low,0.43655847805090964,0.3210811218125421,0.19142663305545835,1.7315677264853477,Clay,2.849278851221637,7.640957121740066,47.559326046465905,9.73165445493818,78.1180870695332,37,Masonry,Pile,3.5585905075996105,6.954081113560649,273741.36640195874,3897.9323674048546,47646.41349286675,Braced Frame,0.7825987466965137,1.3357282457620705,2825.391155352848,4.168098076698665,0.7549010792811566,75.49010792811566
High,0.3682301240287561,1.2643120875193699,0.38784203491062896,1.5476883800293035,Clay,2.798502235990853,8.056169567737623,3.8706776892588532,0.651781712363881,127.04238742867284,24,Composite,Shallow,0.6510262179698374,7.197248853809408,282217.47367310856,7640.49253888904,16224.506717177937,Shear Wall,0.12274004494023395,0.5320728186328837,4567.974312291889,0.43729567243136935,0.3225061889878198,32.25061889878198
Low,1.385534721345612,1.8831161006068937,0.1719529503227548,1.5684423590405057,Sand,2.5188394242925227,5.830887755791482,69.29228606154743,5.782219023266134,159.7502834544531,44,Composite,Shallow,3.181155624658082,8.844226527290346,635893.4386066353,6394.453087489035,29451.644217637568,Braced Frame,0.14676703365363855,0.41457888229585,2869.351292008631,3.971605614136381,0.7292522694032362,72.92522694032361
High,0.24252515612935166,1.357377691696113,0.31420676970224554,0.7915153725724088,Soft Soil,0.842682740360074,6.730442643974612,48.70188810404956,8.64398491457782,59.715092115001944,33,Concrete,Pile,4.5998061534943,1.3043915881436732,352767.5231633143,4868.043126111182,47726.565019788926,Braced Frame,1.9634106585639748,1.056654627543401,1082.5974825725937,3.9380850323166103,0.23285475144691592,23.285475144691592
Moderate,0.8083410708289043,0.2459257917974009,0.09681602628527833,1.3960140633021938,Soft Soil,1.5194148906914249,6.395035069953368,13.310186426798662,4.865688846309432,113.57568495276847,20,Masonry,Pile,1.635825419029973,4.63897053412788,693304.7326488495,2340.803551466645,32873.68414973968,Braced Frame,4.064902644244103,0.13942820570789957,1748.8093022946412,0.7433229311126046,0.4281027709077534,42.81027709077534
High,0.40919389614821244,0.7738657894716573,0.07386448862918431,0.34458946416262626,Soft Soil,2.1815092177543973,6.347352529581425,22.212909121715697,0.8774191408215709,143.2020730814554,48,Steel,Raft,3.207800455406779,8.062616026774894,950495.1761888715,3383.63862597434,33982.55181318776,Moment Frame,2.9763213668992967,0.8046683575251025,2672.736726530369,3.343845236479699,0.8899288171885065,88.99288171885064
