Seismic Zone,PGA (m/s²),PGV (m/s),PGD (m),Spectral Acceleration (g),Soil Type,Site Amplification Factor,Historical Earthquake Magnitude (Mw),Fault Distance (km),Seismic Wave Frequency (Hz),Building Height (m),Number of Stories,Structural Material,Foundation Type,Natural Frequency (Hz),Damping Ratio (%),Mass of Structure (kg),Axial Stiffness (kN/m),Bending Stiffness (kN·m²),Lateral Load Resisting System,Predicted Max Inter-Story Drift Ratio (%),Predicted Max Roof Displacement (m),Predicted Base Shear Force (kN),Predicted Structural Acceleration (m/s²),Predicted Damage Index (0–1 Scale),Predicted Collapse Probability (%)
Very High,1.3114140624724775,0.9400033658914679,0.44880126184247154,1.2635401138178228,Rock,2.0754216528674982,5.729218291664753,51.97802004385579,8.590794283594091,75.09178010553664,37,Steel,Pile,1.0349494477001273,6.195804698515217,283925.24614589894,2907.9587747988026,39654.63538108593,Shear Wall,2.3157217121116735,1.4971314849596922,1840.0608737343002,1.394524005497583,0.9670450539043636,96.70450539043635
Moderate,0.3201824914516015,0.7353622400786224,0.0605711246577602,0.9554747052596785,Sand,2.2674810856757786,5.442836509406394,17.371672125805407,8.985337467572705,185.70796334612265,40,Composite,Deep,4.244935732269255,7.345154911631398,870511.6360525576,6517.588231062306,7989.528430468972,Braced Frame,0.5448015127548146,1.4976568060178481,1415.062543050322,1.584541583959574,0.1786477875583583,17.86477875583583
Moderate,0.5337030028927389,0.8496873991059551,0.16459357610502331,1.4007530447641487,Rock,2.8054691519787154,6.54897937413871,97.79356846972449,9.472408358835493,141.23811111584183,44,Masonry,Pile,1.5647344974957988,3.3822540679253508,348127.8413108035,2072.853393310864,40805.39716091954,Shear Wall,0.34053487475005395,1.0403984592563333,4904.119119475407,2.82291289308933,0.6230931273139058,62.30931273139058
Moderate,0.5060637447474116,1.1068871151674426,0.40805694493243433,0.9249940779049161,Rock,1.560364371581737,8.587968965425192,11.684530941534392,4.035131124984015,55.149541524763315,25,Concrete,Deep,3.6305203227908334,2.997240604419723,282895.37807395484,4346.679859972948,43147.21823714785,Shear Wall,4.300475586436703,1.3186577291593655,4360.371069794464,4.392421625977279,0.18799331962968446,18.799331962968445
High,1.319979647867196,0.40659798093792787,0.2990588767870252,0.3539487815849345,Rock,2.167316084503785,4.970161425392812,93.26246982578283,2.2496899999729516,114.9965597292819,23,Steel,Pile,2.925625982428668,7.066206519414695,764242.0255066686,9043.89335866896,36058.37930569628,Shear Wall,1.1048997623157673,1.0282097627423337,1617.53137453822,4.171612842660403,0.2099567202490118,20.99567202490118
High,1.041784191892457,1.1867921687388263,0.1974241246184436,1.2020368219322974,Rock,0.8853588004035524,7.74120565776328,91.4442231288668,3.7990441028203152,108.94095949020983,44,Masonry,Pile,4.889786017358921,1.9398020154301734,66712.86359421915,2077.6122218184346,45257.20792418686,Braced Frame,2.9182611127268734,0.0668925277800329,1560.883771016686,0.3839337164139094,0.6692578837073668,66.92578837073668
Very High,1.2153539560679212,1.630321425669974,0.23724439402813569,0.3930568155787826,Sand,1.2108995621084846,7.592773519859074,53.010687700130305,3.3958297526908927,31.890270237415123,1,Masonry,Deep,1.5095488106249706,5.086558042510427,304611.14548177156,6800.360340809227,9192.659343938682,Moment Frame,0.8300155162089629,0.14135280192856564,562.4932365660212,4.406880045330915,0.9159540849719828,91.59540849719828
Very High,0.4506550583094986,1.5443057666013023,0.427419149207888,1.5830707577031855,Rock,2.6287407711978736,4.930893893985109,72.76611691177236,1.8439237337783148,120.29236662136975,33,Steel,Raft,0.960190498540161,5.43484381599181,406625.45961861446,2442.8485202815705,24347.60961064238,Shear Wall,1.3863850974555278,0.7736437333305343,4391.30275952199,0.56603593367012,0.1590442470992416,15.90442470992416
Low,0.9748237394497984,0.39240981891816995,0.1706621886438862,1.1422976064177106,Sand,2.486890383944339,8.6515758220761,44.1687814992862,6.11194003400473,66.3831966248068,15,Composite,Shallow,0.44978162093388985,4.432032792236512,888126.0637018128,4449.615999055575,31385.367068791707,Moment Frame,1.8705631568704735,1.5019952536705046,1890.2419515917002,2.135205539662462,0.9624655337564261,96.2465533756426
Low,0.9004443764012481,0.3835739925088004,0.4349551927212735,0.36724660204682225,Sand,1.5714139212057232,7.058124909705688,63.37342317670138,4.818579189035426,15.208009527872473,17,Steel,Raft,1.3566063789501464,2.6674135812796123,952919.712420927,5635.860401558693,30213.45556417688,Shear Wall,0.8040145381383742,1.8273201939873465,2884.4461911183826,3.8504817523456842,0.319372326016229,31.9372326016229
Very High,1.2659625275035795,0.6095312987153353,0.04497908105736906,1.7359746977180517,Clay,1.6289833811032675,6.136764845110579,34.71701780469075,8.670439824007635,189.98795075278014,34,Steel,Deep,3.4835402547938847,4.197846378928192,730654.0685682524,5984.410972802604,43191.00579178861,Moment Frame,0.3252152553544406,0.0691195276400377,4506.86975796061,0.4994040765663216,0.3913140434568001,39.13140434568001
High,1.3685218846737648,0.7860419800479707,0.38862242016710674,0.981221287670045,Soft Soil,1.973819753817875,7.90442362572888,30.81474295875909,0.4178848467723767,130.09062196753612,17,Concrete,Raft,0.6092394782569309,4.03801528204405,517905.1919591768,6223.857706754976,11568.877030671398,Braced Frame,4.398083029888254,0.7423798048467459,2070.098209947318,0.2979584333571375,0.15368082393883753,15.368082393883753
Moderate,0.11701948006834154,0.8760656046761168,0.42392626889431345,0.22392736818181352,Soft Soil,0.8005302103072961,5.658144562807353,58.24474883078186,6.47429248279575,175.99919171481517,41,Concrete,Pile,1.374568856718361,5.4933910718387535,658590.4716048042,6581.248446213761,9606.547794404454,Braced Frame,0.15798089581088345,0.45532704787165773,4043.996814943067,1.7169794376928917,0.6158361058516504,61.58361058516504
Very High,1.0436278866823097,1.391424711983356,0.09172700876583204,1.1656159375056143,Sand,1.3307375392836613,7.620794266708442,50.31483774421405,7.653193897264455,136.83092097758436,44,Composite,Shallow,4.305480167283258,7.072127574206674,443300.9990972664,3081.8026279010764,13415.551148039622,Shear Wall,0.40047281589183237,1.6322585095192692,2179.9138499313476,3.6766354785008426,0.5964204946239673,59.64204946239673
Low,0.17257011876762063,0.20769282111508727,0.21574291965372802,0.5304381419217774,Clay,1.2581099789380719,4.678700434075113,58.37410054584813,7.618917034964239,74.61181996732202,4,Masonry,Deep,2.9981741569496974,9.714116111735535,333884.54025623447,4312.991114313011,44685.952421230664,Moment Frame,4.044853588057703,1.6934766078627357,3519.6576481378756,2.6566065441033624,0.4422697431026492,44.22697431026492
High,0.8684021311082982,0.16587813802952614,0.08358438755716416,1.4662788681914143,Sand,1.3510624828494797,8.277336169241725,29.379397547415277,8.872132274245699,104.97417410411822,13,Steel,Deep,0.5337033932153382,2.297469341568954,953153.664732647,854.527303963112,47110.32705022116,Braced Frame,1.4818408501879747,0.4207536467068716,2184.3628156012965,2.1433091659874695,0.47609138988433586,47.609138988433585
Very High,0.5026858206611494,0.8446300695934271,0.3535954603681147,1.490297525062524,Sand,2.572992853573571,6.516768811595933,37.32882534988253,7.317434054011991,136.77061826769952,4,Composite,Deep,0.42887909239886374,8.857153989469737,159620.7175594276,7803.191277048063,28911.875109229866,Shear Wall,3.6418194754620172,1.4245462343353956,1994.1577160457282,4.084059255827037,0.6229758757868907,62.297587578689075
Very High,0.5294872393309976,1.424611015062163,0.26813853626276674,1.7642105049529253,Sand,1.4152824844021752,7.365118114610738,9.305898102262022,9.285319610312193,192.24920341428032,7,Concrete,Shallow,0.493389801563681,3.5576020035123617,379073.88964760356,8452.445266994571,25567.22479395547,Shear Wall,0.8165061711677775,1.466194514229843,4954.010735831444,3.856875384751799,0.5834965349643584,58.349653496435835
High,0.5941419048332992,0.46752715161731684,0.3180263500074522,0.9531782027416562,Clay,1.2213469085103261,5.495570189130077,6.175360854948366,3.3933003382268256,54.46554452873081,46,Steel,Pile,4.721000240706813,6.322354930012651,904134.5119625635,2392.7492531126827,30663.89479262016,Braced Frame,1.262680568123925,0.36234481659731493,3081.1317179176963,3.951611727696427,0.37426338164841155,37.426338164841155
Very High,0.9698094286694541,1.3188585143868783,0.09904699651114937,0.8734266955371531,Soft Soil,1.9093796137446695,7.546831706963015,26.09225583762861,5.081773225840276,175.62052643170296,9,Masonry,Deep,4.279382857093062,5.920632531854813,736984.359058046,2413.7176639819772,31199.074842488008,Braced Frame,2.906604931325268,0.8730548748463891,1868.5863490337472,2.35266143735109,0.8841143852998666,88.41143852998667
High,0.5676699519362769,0.593673462086569,0.10666118516415735,1.380908529259017,Clay,2.7044190800200107,7.975081241519744,8.35043907372403,0.2393886665006177,185.19517203238254,23,Concrete,Raft,4.255712201690119,6.0125357676543665,77646.37875682776,899.3458208089967,9344.930542231295,Shear Wall,4.944315608597489,1.2444722328331612,1326.2064115797484,0.1953012882109533,0.667660523127356,66.7660523127356
Moderate,1.1257786708263926,1.783563606745681,0.02170716542944328,0.32520011578127517,Rock,1.3309693484424998,6.629459340979794,11.273696154839328,0.168880114302583,135.73102535849654,33,Concrete,Deep,4.63624045876902,7.510227505469316,71944.68975303476,9718.646316528631,34634.13319953338,Moment Frame,0.45987790378019355,0.06187254779587177,246.84353263660105,0.9434711701084981,0.20540633059980873,20.540633059980873
High,0.6663383398034175,1.8018108941065714,0.16171170006266913,1.029756373448311,Clay,0.9727797341441572,7.279771158278074,81.47991213399978,2.4772535424700473,186.59699234326087,33,Concrete,Deep,2.625225873204369,4.435194751740964,540686.8394933459,8168.272397113677,23165.204015072854,Moment Frame,2.062717530110978,0.8151377477613067,3547.5033842311987,3.7323720985554667,0.3199029935057274,31.990299350572737
High,0.19569448043394205,0.6648456881345203,0.2803125860055038,1.0286209202224466,Clay,1.5840904188692626,6.553466657200794,4.84849600465224,1.0979912516769441,82.58632455808686,20,Composite,Deep,1.3872544214880511,3.8718996691317007,510040.4034185206,3926.680427607305,26351.71598355421,Moment Frame,0.3110967530290316,0.31836688356576515,1892.1792695665467,3.790550011573163,0.7878781017032536,78.78781017032536
High,1.19726377947775,0.536988132530157,0.42910952208466707,0.25210430877765827,Clay,2.4448340140429514,8.523411161660306,66.23533659953954,2.676092542563961,190.83815432788634,4,Masonry,Deep,2.126470420344887,8.675511158669295,470841.9617235023,5078.12857896334,2485.5136124226187,Shear Wall,1.076209569014277,1.0883740372305657,4115.208110704885,4.864263202236548,0.10452538102009945,10.452538102009946
Very High,0.5000616544297883,0.8814775469258394,0.3337967962818817,0.8105729453617531,Clay,2.011519198328548,6.7404113123144365,27.98321713272465,1.8527286158311345,142.0426610473651,1,Steel,Pile,3.650547549842292,2.9808553624684326,337226.57374705846,3273.6861261832514,38463.27499402049,Braced Frame,4.546608031508672,1.6874059910872998,1851.1488800804775,1.0319139818599448,0.7502319987242969,75.02319987242969
Very High,0.7058736314389676,0.5570100118422826,0.21826276537647596,1.5505841575642434,Soft Soil,2.5969454130635645,8.288139190629686,87.28302239010452,0.3823482459026176,13.191124646668321,42,Composite,Raft,4.4049577833020725,2.6222143358002876,987306.7838229571,6173.817699059801,41935.97010212621,Shear Wall,0.5726545085698713,1.0542603378658142,1897.9795025038998,0.7023412619479606,0.35884244114579533,35.88424411457953
High,1.0596214365106622,1.377529302254237,0.47660693708267476,1.5554611573909225,Rock,2.9111027247403145,8.106084262216118,49.014236173172456,9.10211104941989,181.8402022047153,34,Composite,Pile,2.2884364481577166,1.140466929897348,308387.9568342124,7314.429917168329,31351.65614279278,Braced Frame,4.298594014740605,0.08160735645528108,3906.945981713443,0.7800692053064705,0.5516910461084356,55.169104610843554
Very High,0.5654386200081968,1.6695229006417425,0.3599033550873401,0.2687040303634577,Soft Soil,2.543857448853558,6.3472716960676046,31.252069473454746,0.18140900075002608,99.47219776147254,27,Composite,Raft,2.769828585833894,2.895200038262681,515538.1961185338,4750.000540922784,37687.45812953647,Moment Frame,0.9712358667393982,0.06901791873761443,2472.859950925636,1.0054617638632874,0.2805581171728396,28.055811717283962
Low,0.17921991860540187,1.3788750487313124,0.46515243622841246,0.25422550067131244,Soft Soil,2.128366773456258,5.535380213358637,52.24625463325402,7.387213228937146,94.7637620316774,21,Concrete,Deep,4.672558367726015,5.666782899850375,434648.441981913,8799.144836270423,26612.594155432995,Moment Frame,4.322745748034749,1.2149512603492572,4430.229114476895,2.6894948635885854,0.9864565718204278,98.64565718204278
Low,0.623489465817939,1.666265849773764,0.26426639866281065,0.54658231090329,Clay,1.8853514937152371,6.327369596518969,38.81384388548162,1.6062640805032138,115.46098816602868,24,Masonry,Shallow,0.7159934581252596,5.846579857127022,211736.954663655,5411.745691078695,31299.315569949224,Braced Frame,2.736307619364809,0.6626833014659689,2971.171995687532,4.878536168573342,0.9058402921423042,90.58402921423043
Very High,1.4222280157720248,0.8542851081942008,0.13019323312177666,1.587102306341789,Sand,0.8881519899661867,8.217978190988491,56.86580540231319,9.13107325779604,34.129986620389445,15,Composite,Pile,4.339036241475795,3.2897844207598093,242487.87816901464,1870.4060562392024,20334.01322469869,Braced Frame,4.403212703711533,1.1496063419090663,1241.1918268961638,2.9882142667029745,0.9284498369442518,92.84498369442518
Very High,0.9984281562179814,0.3970022443468356,0.027360516495996273,0.3191343946249482,Sand,2.9655083533908906,5.524346411187265,12.338753964308475,8.93867980193987,96.48737947064274,35,Steel,Shallow,0.9646759148092925,1.6504675303707987,922387.6049092843,6411.768070457595,39801.838988063115,Shear Wall,0.8433478587924501,0.3356378467428153,2862.9456787851655,2.66117152166855,0.18477551797751668,18.47755179775167
High,1.0400708081340897,1.5021068000554252,0.3633163408904414,1.3239945644666586,Soft Soil,1.6436584696650938,6.859963556359872,99.70205977844256,6.573621349055648,167.0698072599604,25,Masonry,Pile,2.5225344813949775,7.701767167106856,865365.7367131574,4891.194176124124,23945.275582960137,Moment Frame,3.8339791014083477,1.5559560821438625,69.808295876775,3.3994455288809684,0.8416900959617651,84.16900959617651
Moderate,0.9851950150926957,0.7849015597689524,0.06153019600476153,0.2719815533422755,Soft Soil,1.1349020706171071,8.127435365823363,43.13003189197504,6.755118083025991,8.01907953181549,9,Steel,Deep,1.2484310175826858,7.821778137060698,239092.09052933476,9388.882699276395,34330.43231652525,Shear Wall,3.4354231207948263,1.7228322144098,1596.36700485766,0.46225891471496716,0.5353971010240902,53.539710102409025
Very High,0.3785889945432115,1.3754145679353518,0.15208478900771163,1.1593343513713033,Clay,2.2667594818722048,6.090648638077704,35.4748333310295,0.15285750549991658,58.2188462632524,17,Masonry,Pile,3.0941486273149,9.980527566624053,881879.4927140379,4222.992248891178,31450.039552355727,Shear Wall,2.7603735982255166,1.7795589481489384,1079.3640854641626,4.0952352573367925,0.7078592002736387,70.78592002736387
Low,0.6856674097431921,0.6142234897653547,0.2667029830340648,0.7053144085025461,Soft Soil,1.4254342360100107,7.389943366512139,71.31077498331022,9.85022850452466,5.478644356549623,21,Steel,Deep,2.8811524241996773,9.10026613481246,248726.8235768004,4327.2245219259885,35413.411400901736,Shear Wall,4.071877987613768,0.6151084317743891,3288.2298852345266,3.2697097622640854,0.21750406674044642,21.75040667404464
High,1.1513157177086455,0.2543363061326781,0.2826438773020941,1.441153737041974,Clay,2.088712196048305,5.605342083219665,37.026041243037916,8.790542775400562,86.06370528422042,13,Concrete,Pile,2.024035348355609,9.334558580658783,645219.0056603123,6682.347202925297,39475.57788113594,Moment Frame,3.276552519692495,1.324863381573216,723.3909883240349,0.9388392299935734,0.711984645979216,71.1984645979216
Very High,0.2419220565744228,1.9859054114267505,0.3006910152965809,0.4972737630031181,Sand,2.090889397258101,4.99175750415672,83.494156197847,8.961551634727911,147.02152454627827,3,Composite,Deep,4.343856871256597,8.183834431695477,127216.49715465911,5506.369074101066,26122.96059805676,Shear Wall,4.3975299305779725,0.5652943503892178,1485.9823614692918,3.1905055638772084,0.9142672445722961,91.42672445722961
Low,0.48899388652559717,0.39678286506813865,0.08396140984450062,1.1866431099629318,Sand,1.7806056059863122,8.074729012917853,45.9728017116821,6.626520916803632,160.76050667735257,4,Steel,Deep,3.367103937382687,6.539525680442492,886351.1449461622,4057.273836615131,40840.23151352777,Shear Wall,1.9672045192492738,1.5278860734150412,1689.977343900807,3.021419016572765,0.2674813858487999,26.74813858487999
Low,0.48684675185219506,1.977999888530614,0.19048896500600274,0.5006603087790044,Rock,2.6394609541990937,4.945358805339181,72.23628291327806,3.5133905936799117,189.31200341976628,4,Masonry,Raft,3.6617845998173295,2.156913618440594,98925.28449219362,9902.85694896085,25365.60462630884,Shear Wall,2.990623573541694,0.2498447544303839,66.30148287622993,0.4177796289245228,0.23335985154950656,23.335985154950656
Moderate,0.7048264986323083,1.9568318718762499,0.30897991933136637,1.3132224812906614,Sand,1.3829275354219748,5.72121627785813,11.637868427746769,8.94712162599576,123.65839952930337,43,Composite,Deep,0.9231667433968089,6.6008196771028995,577195.7447885799,3370.76234499446,47875.0818203329,Shear Wall,4.3659441286209875,1.5279019741311108,281.49451285152657,1.4079677694442059,0.10441454847347775,10.441454847347774
High,1.472516237319059,1.6082543974252754,0.4849396134522586,1.585252658753273,Soft Soil,1.7869917015590153,8.347992398988481,84.76579936995607,2.9860175886968046,54.65223899731462,28,Composite,Raft,4.439195254282964,1.5036027437316397,790725.9489213658,3136.523523857771,37880.91568212492,Shear Wall,1.1525889141102599,0.8850599889504341,1590.0743334887375,2.0156139521574783,0.266806675311661,26.6806675311661
High,0.19450356535735072,1.3529036279557953,0.36408793771214465,0.31556305851549205,Sand,1.9829226829001374,6.0591117918540025,73.83608069103288,5.670844279087808,185.2088500816563,7,Masonry,Deep,1.0017927853760882,8.967692001440732,160992.99959014714,8712.062470959983,9385.940837557144,Shear Wall,2.480132647422586,1.7125434859667008,1150.6644432999656,1.2999537944372028,0.5357922618156125,53.579226181561246
Moderate,0.8261813921328329,1.197833395477061,0.46137927478988494,1.573212670612356,Clay,2.2599743856880594,8.878704072813726,21.959961067734604,1.0873366262044357,156.18657200667334,26,Steel,Shallow,1.269367828207809,5.336392018727778,434256.2541251791,532.0429637302773,41649.63909680813,Moment Frame,4.807634926470478,1.4804724113724315,628.68835614502,1.29149227019766,0.8327162914375604,83.27162914375604
Moderate,0.35111055481709463,1.745592936217886,0.38134381709877435,1.1090779325043065,Sand,2.524738071112297,8.908804506482369,15.383314964832879,9.227360738314227,117.01355418561319,11,Concrete,Deep,0.8146646647850262,7.277255487782202,89852.6439155476,2411.9050285966223,28027.795379525072,Shear Wall,2.420648827323954,0.759274084986005,813.1001989520919,2.90744752111735,0.27880026265763946,27.880026265763945
