Seismic Zone,PGA (m/s²),PGV (m/s),PGD (m),Spectral Acceleration (g),Soil Type,Site Amplification Factor,Historical Earthquake Magnitude (Mw),Fault Distance (km),Seismic Wave Frequency (Hz),Building Height (m),Number of Stories,Structural Material,Foundation Type,Natural Frequency (Hz),Damping Ratio (%),Mass of Structure (kg),Axial Stiffness (kN/m),Bending Stiffness (kN·m²),Lateral Load Resisting System,Predicted Max Inter-Story Drift Ratio (%),Predicted Max Roof Displacement (m),Predicted Base Shear Force (kN),Predicted Structural Acceleration (m/s²),Predicted Damage Index (0–1 Scale),Predicted Collapse Probability (%)
Moderate,1.4411077694794787,0.669889932576343,0.4960756840998128,1.3536334504261076,Soft Soil,2.7926649394001855,7.311153012329736,80.60681536005204,2.2241095611670225,128.00204795546173,39,Steel,Pile,1.0969866291365862,7.246594673703612,460856.6938972149,4648.712564050176,26927.05341201838,Moment Frame,0.4170505645152708,1.3016995945384684,929.457737703838,2.836401083331946,0.56236699862121,56.236699862121
Moderate,0.8415236135238677,1.2325557149527815,0.42890777326820995,0.5298235811734917,Clay,2.945191773356899,5.771433886480996,79.40414043220485,6.377145054508735,119.57454556921067,20,Steel,Deep,2.967507024428513,7.909390464017585,165941.38392832206,8624.688451768652,18863.937703988344,Braced Frame,0.8070572711488693,0.6214120789916525,4387.228245618816,0.6541759276716633,0.9607562849914706,96.07562849914706
Moderate,0.4386506117580449,0.9243034534249639,0.04958608000181933,0.21438384196657473,Sand,1.311037239012196,6.201112272454809,13.590937732471806,7.632825582316277,73.94202656984574,21,Masonry,Shallow,3.490268408217637,9.060143311747686,124796.69985030757,2187.73112460197,14037.886204686187,Moment Frame,4.42698287323958,0.7501903658980225,2652.8142285519443,1.8710305941198626,0.8924554581474337,89.24554581474337
Moderate,0.8008449996165905,0.4123705052498696,0.35347962640818803,0.5555953537034426,Sand,2.7388546003510017,4.963257651151288,40.45736319026863,9.861676489144655,99.07803672431793,21,Masonry,Raft,0.7779198400701821,4.190897856378953,696058.3259605583,5554.765421487522,29934.980631720824,Braced Frame,2.109805143704836,0.1739112198344217,4340.579700794812,3.332144705530052,0.12859174122544603,12.859174122544603
Moderate,1.0514684658291509,0.3215078416558238,0.17344421334953572,1.6507540025285936,Sand,1.5221611964101416,7.735602691951204,17.84511147330717,1.8861958386055673,121.48311369068135,18,Steel,Raft,0.789391529140272,9.563295275673342,436806.80898466427,3884.1993332279944,8431.983886624868,Moment Frame,3.110229135265476,1.7154064937255291,1349.551692704824,1.7176256708509814,0.3107899271017305,31.078992710173047
Very High,0.20673490516299026,1.1387217959370473,0.0044841486782937106,1.176403747322813,Sand,1.0482491979371458,6.767499585560731,26.217329545297343,7.6836564052410345,97.13011221340363,21,Steel,Shallow,2.913452919010162,6.7355182911077875,739914.5022767632,1679.707670880434,13064.033656930298,Moment Frame,2.6883428403032963,1.1889545056570803,903.0629300672958,3.3181161392140432,0.24306319151251188,24.306319151251188
Moderate,0.48458534106704876,1.8145847632435965,0.2023370035444728,1.3257929235263821,Sand,2.7140548361443644,7.689445345555446,27.06137130822389,3.4541315822784187,141.17109816840923,19,Steel,Deep,1.4964596109614987,8.08931694429053,154555.2904157404,974.0872486535333,15386.996088172737,Moment Frame,1.956523659801051,0.17641904972808187,139.18240571964185,1.2994193768377338,0.572099326050257,57.209932605025706
Low,1.229751687237591,0.7535196044596025,0.11814245644076067,0.537158996885463,Clay,2.199432396215961,5.620245861585928,56.0674030085515,1.8387020091232231,89.57090195585711,4,Masonry,Pile,2.0835156907573493,7.297921391332945,629372.2705060409,5780.778154135054,30787.53843274011,Shear Wall,2.000301058793563,1.611013903452751,514.6300656462109,3.6339132246120287,0.8027994315059253,80.27994315059253
High,0.7435308185637257,1.4927002037229842,0.4096157659897153,1.3229598644771945,Clay,1.162407971378336,5.959972028857798,41.72968224428608,4.271631718017164,44.443270439695915,13,Masonry,Pile,2.1235925487083738,2.8501455281356596,471141.4537012534,697.1143005335998,19289.492991807296,Moment Frame,2.8217785289524966,0.8937895853387793,779.979494188729,1.8619889122076527,0.7594114468868812,75.94114468868813
Moderate,0.8652079988452128,1.3514565743855573,0.16932797381403697,0.1478065606724704,Sand,1.7456287665286059,6.003969017670515,94.82554759662423,7.958975530271302,46.71708764620421,18,Concrete,Shallow,1.0570537245675986,1.642945447079455,105098.72173417715,1482.7381085828815,25783.381705882424,Shear Wall,0.7915948272311438,1.5325516868383264,440.3350337709492,3.9733582274660426,0.7267491322834767,72.67491322834768
Moderate,0.7059424030932568,1.8699543371880138,0.4139343232829547,0.7380462878141234,Soft Soil,1.431966928729549,4.615840843862473,13.510644052753507,4.702013056670116,6.131734924373513,29,Concrete,Pile,0.20631024046700688,7.536578176163082,567561.879362178,3801.8606710365416,32871.474924562746,Braced Frame,1.997569297246727,0.035113525557404525,4489.552510953828,0.7697805821172864,0.37526487573558587,37.52648757355858
Very High,0.16145991970020718,1.6598639328683678,0.001298371478562859,1.1654806925219632,Rock,2.4209480511624335,6.034715427737806,97.39552135016967,5.42147869201018,63.68675453394113,25,Steel,Deep,4.295128687851235,5.599474010151188,128664.06097881848,913.441760879746,47857.30843957668,Moment Frame,2.2901802900734216,0.06719199697452405,4561.619624311731,1.8736919518261979,0.13963688162782795,13.963688162782795
Moderate,0.3320496917482183,1.1765499919203797,0.15460175586303346,0.3483641614202444,Sand,1.7975157073733898,8.114870580831152,23.83322538121213,9.9520781609812,151.03893989331132,13,Composite,Deep,3.632009450708904,7.3199203156749215,836333.7604014577,4304.229651292906,38477.03245803487,Braced Frame,4.9271184960130086,0.3498580879764679,4689.945227761467,2.373269023495953,0.21058355362859926,21.058355362859928
Moderate,0.7237582942386472,1.348357946644804,0.1213414419395732,1.499106076559789,Soft Soil,2.9764158792340467,8.537843230873824,77.51451970180345,4.051182065618518,159.86172822333387,27,Composite,Shallow,3.5145850789547146,5.291585235239138,650359.5921205274,1738.4677296804646,20857.582248033275,Braced Frame,1.822128369500017,0.4297239467199529,4801.31114104956,2.176843070052826,0.7416774596483326,74.16774596483326
Moderate,0.3928596515710989,1.8069342865096663,0.11755011317323688,0.4995532079802617,Rock,0.9204389609711093,6.8319824203616735,34.55802269110932,6.192467471621474,44.48117070867126,19,Masonry,Deep,2.8232246629439346,3.810110683748536,579119.1570724259,3823.794361651462,37665.493345465584,Moment Frame,3.258436589816258,1.530271505317174,2484.5832748486946,2.2221630721496664,0.14753433905956326,14.753433905956326
Very High,0.16997064012355023,0.859085690715176,0.03502512326296588,1.2088778917913587,Sand,1.5810335854997428,6.549757628486491,15.165058146314077,3.7159175959921815,192.0135793899245,49,Masonry,Raft,3.564654341974978,3.5651611833361145,176795.5542461761,8016.017027355648,47535.01486504141,Shear Wall,0.7733359491496941,1.4163213863930302,2673.621952283504,2.279536333390856,0.2229467049335211,22.294670493352108
Moderate,1.2811095296725532,0.7209099411297769,0.09437501093484037,0.7888351423780604,Sand,1.8601803676419504,4.638710784147166,85.93102933937776,3.9885778986541793,102.9685447286247,1,Masonry,Shallow,4.691304212228604,7.574789177829948,323084.2578288788,6450.461272528251,25469.646737052117,Moment Frame,0.42085877096807367,1.236015357068358,697.6106214390845,4.9451372736399914,0.4245526528734912,42.45526528734912
High,1.4736695408297622,0.12054105890687306,0.2782192353729243,1.1132741123120002,Clay,1.9068938204463037,8.456419519134222,31.577229024409856,6.98684345910954,183.810856058608,38,Steel,Deep,3.3952339339005975,3.4910207331919723,518232.1022785344,4731.310238981337,21114.349723021594,Braced Frame,4.370555868606028,1.7708692040018443,728.4075868726876,1.0464698060213082,0.07211243068746298,7.211243068746298
Very High,1.2104000235954353,1.6704470409637822,0.1463891753460345,0.2826659394691438,Rock,1.495058809248401,4.558545960416427,66.22668501845737,9.385081063339346,142.81922996301807,19,Composite,Shallow,1.4724387292517598,7.4320918383287875,651619.3379577036,1372.4164246240239,4822.916251036091,Braced Frame,3.680601021787864,0.5018260794761689,3875.1443713475346,3.8664527694921613,0.2126920607701298,21.26920607701298
High,1.295298890386534,1.6218633307663932,0.20927999638224482,0.12875175986673246,Rock,2.40432854801465,8.751375360945953,57.07792482357603,5.4693536098739814,145.87451748937056,1,Concrete,Pile,2.93868824835631,4.455641136856407,224069.1828050478,6381.921763489964,44726.14816189225,Moment Frame,1.6557465092133885,1.8097657587698521,4285.858966501617,2.8037650274226245,0.14976812734123657,14.976812734123657
Very High,0.4387679824438635,0.29846358439028764,0.18905657329324707,1.646259526546512,Soft Soil,2.7244435616757445,6.701473119096407,47.70387462969656,7.707159296592921,21.58350615468387,40,Steel,Deep,2.3231571361578087,7.9380856388692225,58422.964226942226,2055.2416988359782,13075.279758889124,Shear Wall,2.5724322141964224,1.819847427837713,3934.3364316239063,2.126779248738285,0.9513217829118404,95.13217829118405
Moderate,1.4448777657184797,1.1960290241521305,0.4380765575749474,0.5583710149042107,Clay,2.8651824643512986,6.0387052210862695,50.08612779220537,0.9831449322879419,47.898269744901484,17,Concrete,Raft,2.8708118293383174,2.2852893320440266,377522.1779058308,1227.5702666853415,4133.9369441378385,Shear Wall,0.765146503814009,0.8741769227718593,4181.150531725018,3.2042907141587964,0.19152588554488914,19.152588554488915
High,0.3756959862347997,0.981565226517086,0.4527442005062472,1.4934509047267805,Clay,2.571205428958958,8.65898295679197,73.49155349513647,2.190464570576077,6.718892492422164,21,Concrete,Deep,2.6845302915815603,2.84481948883911,508727.8818284314,6807.962165866274,27322.97084296307,Braced Frame,3.5650854405062153,0.19782853883613608,1419.023061370084,4.282304071189039,0.8617697101703937,86.17697101703938
Very High,1.4320017345065652,0.32554728146731177,0.24698552885627417,1.7988955108027405,Clay,2.6712764340745188,4.609759468995435,9.689518498220616,5.071103245103371,144.64488989296382,22,Steel,Shallow,4.322121369096632,7.173204451481472,225211.8303169629,9164.569029299571,42449.08265211473,Braced Frame,0.44461990122845096,1.4558542172971547,2357.025632377741,2.386527983370122,0.1147981912666084,11.47981912666084
Low,1.4927470115523314,1.9630796314153747,0.1657478192074866,0.45943313859814894,Clay,2.01119966136399,7.116412026910892,67.14988553383262,0.29811606392487044,72.16546624355945,15,Concrete,Shallow,3.3286404962291223,6.042080081784364,517557.23056244553,4875.637649319962,20925.11772552957,Shear Wall,3.80946197901189,0.6804880585676876,2323.0369478071657,4.337526707909231,0.8696731323025073,86.96731323025074
Moderate,1.0964119280444682,0.5079221861803753,0.05429355129717946,0.5507902600117045,Rock,2.6169540981389923,6.970196360247019,89.6853980384593,2.6032642897493323,158.39724063488762,39,Composite,Deep,1.1060406940836989,2.8349050835943927,371561.5656408053,889.4611507770833,39370.306037791794,Moment Frame,2.7794989003229347,1.591909739699094,4976.6528455515645,0.5596118412993445,0.5994337862734697,59.943378627346966
Very High,1.4736012245085506,0.22774494217206617,0.4767480368116654,1.2268616389789317,Rock,1.467708600125495,5.486941805451219,6.721031504966551,5.222272769267165,71.09256288772012,48,Concrete,Raft,0.50248053860178,9.125443105541395,482335.1828010874,8862.82831547614,41983.404356915795,Braced Frame,1.4663675974251476,0.3357436649685682,4748.43119957304,3.300112687766185,0.8497059232246179,84.9705923224618
Low,0.8973556913939451,1.2302100210536282,0.03105324550524843,1.7412626788210561,Sand,1.6766532766402718,6.429993441075948,14.924680584133007,0.24811586273737707,164.77008169827792,39,Composite,Raft,2.2369461856704653,3.4834973267138167,380084.86304966424,1136.2507781739537,23265.774382173324,Shear Wall,4.326614334901138,1.083635076012987,3012.50622680873,1.7325823004722298,0.8673486885373575,86.73486885373575
Very High,0.4633584964465265,1.503846686552762,0.14952748850657194,1.6568843919242646,Sand,1.4972086304007974,7.435188026746966,71.94656173350111,2.719008233637813,30.486159480921035,32,Composite,Raft,0.2749309868371004,4.789642583742705,647044.4572974602,8741.375805665079,29956.79823108321,Braced Frame,4.931752164660386,1.0210667233332398,732.9670090464322,1.994905103633604,0.5963735306674091,59.63735306674091
Low,0.7117942399318692,0.16164254748965523,0.14973503438383207,0.9548883841114942,Clay,1.8282521379854362,7.772090385968674,44.290883176217136,5.188905112811108,38.8077655677141,49,Composite,Shallow,1.7278274520000112,2.8205914768528415,90752.1604438931,4222.284045617845,27161.702628408064,Moment Frame,1.3463105958684263,0.20962583623353087,1330.050391221852,2.897996779431088,0.917694153395024,91.7694153395024
Moderate,0.9309853095303002,1.3515635135813422,0.16088024178396723,1.451687480295432,Clay,1.4282751557250002,4.503225864179609,40.95131346055515,5.774177555014332,71.47092521886762,4,Masonry,Deep,1.966503053308283,4.492248565073628,212360.0254470599,3971.248116919352,47020.597220090574,Shear Wall,4.05060613297107,0.7330323230885903,1850.619697159592,2.4515923116581044,0.585448291484623,58.5448291484623
High,0.202314186837821,1.1113545643077636,0.08297913479293223,0.3307679502698318,Clay,2.915545172959783,8.715840435409568,14.559696819879349,9.264941761247524,84.6550408320433,44,Concrete,Pile,2.002826595247635,5.424820751003268,461113.3256554496,5656.575104836292,36549.7785694963,Braced Frame,3.7758149502446416,0.17866307375898882,4372.397715482477,1.9707192486982867,0.7125650778783753,71.25650778783753
Low,0.9712805704641445,0.29620351686259194,0.39179755403092487,1.761644913146821,Sand,1.48825818161247,5.240364175767656,51.17023403106102,6.488921670181018,72.99704811438079,45,Steel,Shallow,4.900880116754685,3.657223490616272,388481.8797742639,9592.305765720079,46341.79772773554,Moment Frame,3.7612315934177802,0.9348332159293724,894.6306624637191,1.610784766916684,0.4160804771688327,41.60804771688327
Very High,1.4736489714672123,0.4277953661980879,0.06212643312102862,1.739400497861177,Soft Soil,1.0156979838440676,5.551111954000616,13.527985808441347,4.205884445046938,153.91117134202787,32,Steel,Raft,1.6587242094678476,7.92184305876835,422050.3581561262,9038.035178316793,11780.488925036621,Braced Frame,4.7904544962717335,1.6873800716414478,1137.7472373091202,3.129744980934508,0.9140676944709873,91.40676944709874
Moderate,0.36615070969721863,1.179151164900553,0.31781842291742823,0.37833922839459067,Soft Soil,1.9589977653109096,5.685630505622317,48.1854251747435,9.310476653617371,23.90552156220937,4,Concrete,Deep,1.4730919778173819,4.545396807816224,813572.6601364558,4968.1358388952885,16201.605739800852,Moment Frame,2.484423752279763,0.5477074789752221,1779.4542237656437,2.577340293965164,0.8241625389120266,82.41625389120266
Low,1.2096331628037367,0.6630794656752479,0.06279916732620291,0.6090193121652813,Sand,0.925617972579388,4.6701906144841585,76.59791459720401,7.870341535539163,73.48731882950517,1,Masonry,Raft,0.8210284691241978,7.565589999628903,892015.0753349974,7110.320694726276,4474.7601858233165,Moment Frame,3.4034233987276084,1.5320753545030006,4638.205433834249,1.6842147150033142,0.16671311161692748,16.67131116169275
Very High,1.3710583112914672,1.8827998844375005,0.036197283158885325,0.27026349576150377,Sand,1.0431949658788773,5.053734556156462,26.56817143082919,2.0800883190162014,168.26179990551458,33,Masonry,Pile,2.6528424112765414,2.8636495785121903,286235.34432269156,6014.0778972624175,25495.489878094577,Shear Wall,4.13699908176644,0.3750205570687881,2543.869849343116,1.1043089925000382,0.5763878502046987,57.638785020469875
Very High,1.4211822299483092,1.6556064360196965,0.45480532233925236,0.5619199181269054,Sand,1.2826566562317419,8.938574653248729,48.597830649793,1.3953393773533158,18.025430066123537,7,Composite,Raft,0.9376366698253791,4.393319471138609,844571.5072719902,7087.88500110009,43822.260289909624,Moment Frame,2.4497285807108296,1.3507325057063964,3251.838381157796,3.894894160222386,0.8968273290869464,89.68273290869465
Very High,1.4441898461676261,1.9687776923759597,0.09587425439303414,1.4871248420058514,Sand,1.8215705497407118,5.918475318197787,99.20958097028674,6.7905351938530565,188.7569839959147,9,Concrete,Raft,3.1582146211077657,1.0725246000598165,485850.3720258399,8378.61087058992,17015.488159405068,Braced Frame,2.459012893778829,1.8319194258615947,1966.7553600973833,4.0186031301866505,0.7930644936589509,79.30644936589509
Low,0.8300434942100606,0.5933745940057865,0.41080382712529245,0.7431365321809411,Sand,1.7531520510798615,5.018854906525722,68.97839191204969,5.642843339212139,197.3317842430425,1,Concrete,Pile,0.9447669389040778,7.827738255223405,310129.5883219098,827.6913742516417,7285.823240517244,Moment Frame,1.6614082949300217,0.6546168823158819,983.1844499869103,1.1475618222029933,0.962552780661325,96.2552780661325
Low,1.4682310711881053,1.9424749023161563,0.2727708046824608,0.25027484414948925,Sand,2.5593220964061407,4.981460675285805,84.29432035921467,7.917768776548281,22.270793895890616,16,Steel,Deep,2.9680319252441656,6.6329797989743575,986183.2674544444,3594.7186123150263,4353.866491523597,Moment Frame,3.9260459928529574,1.8018191597963502,1152.8626601719768,1.3820801648985417,0.2313016869475948,23.13016869475948
Low,1.1602342899882143,0.9193443526039599,0.039850403284776036,0.6817833921241377,Clay,2.4268442385450495,7.737569854514874,42.06991304949403,7.4141699957789955,61.798141839868705,18,Concrete,Shallow,4.166092348038206,8.360409924284106,833561.701862459,9613.62652822174,22927.513353659073,Shear Wall,3.4623593204592273,1.015787643787525,4023.2225405636023,1.271800810257286,0.367459633130478,36.7459633130478
High,0.3263400107317467,0.7602857110961337,0.4777686475275957,1.7683516682101763,Clay,1.737900246779543,8.345558988146884,77.01823138945967,6.289594185189399,77.61812987689444,47,Masonry,Deep,0.40411824089164466,5.100497092924419,994540.6531322092,9518.69493098678,9037.065486809403,Moment Frame,2.310585507555145,0.6404422149996585,4472.7360896832,4.434391753325053,0.5071918880181313,50.71918880181313
Low,0.7676601490551579,0.19566410124177117,0.12423362232895437,1.170462111940645,Clay,1.534149256666386,5.656285347788114,5.010408121190862,9.865183499126033,156.39631688728159,6,Concrete,Pile,2.2147854796073885,8.197665793415553,209781.2452068419,606.5984547858939,17959.09741537007,Moment Frame,2.15474962125381,1.7940513878719475,2490.7244966710673,3.8932388672030678,0.23266917002726495,23.266917002726494
Low,1.1056636455208055,0.20025398993324497,0.42996302733095065,0.8074736088904682,Clay,1.496231324935297,4.5940928055085575,13.168207071682254,5.382538328093045,121.2057283627631,2,Steel,Raft,2.4130350426504106,6.8282428984388055,186650.5402504657,2413.6812342624794,41179.01059603941,Braced Frame,0.45568925152868134,0.07375416087175907,1817.1229109233198,0.46541026392490537,0.39404525518881905,39.404525518881904
Low,0.4462764421467167,1.4148213862986438,0.08523619288649753,0.38311547294535897,Sand,2.50278919204682,5.503905083004101,21.103988699086152,1.2197469893670265,130.65131159605062,9,Composite,Deep,3.9971462886949394,1.032516392808148,528209.0552970273,9940.815402271446,19818.321755118694,Shear Wall,0.13185561945923605,0.0657575140328928,4048.783925809949,4.1800631541527205,0.5375392044243325,53.75392044243325
