Seismic Zone,PGA (m/s²),PGV (m/s),PGD (m),Spectral Acceleration (g),Soil Type,Site Amplification Factor,Historical Earthquake Magnitude (Mw),Fault Distance (km),Seismic Wave Frequency (Hz),Building Height (m),Number of Stories,Structural Material,Foundation Type,Natural Frequency (Hz),Damping Ratio (%),Mass of Structure (kg),Axial Stiffness (kN/m),Bending Stiffness (kN·m²),Lateral Load Resisting System,Predicted Max Inter-Story Drift Ratio (%),Predicted Max Roof Displacement (m),Predicted Base Shear Force (kN),Predicted Structural Acceleration (m/s²),Predicted Damage Index (0–1 Scale),Predicted Collapse Probability (%)
Moderate,0.683192159875209,0.5772216083419625,0.1545318656494963,0.7388960723134996,Clay,2.2154133951534734,8.114098900213106,75.78828997904253,5.628006327945196,132.96677918342994,40,Steel,Deep,1.6220952125814532,6.955486051534557,854252.2120907921,6824.802116214393,49282.52287896222,Moment Frame,0.535372276850011,1.417616468790202,615.5158724202885,0.10696619295185142,0.8574036800111908,85.74036800111908
Very High,0.8315142535198238,1.7040034180436718,0.46310372034931446,0.2685483908719607,Soft Soil,1.3775226390629647,4.698655029393549,61.06523839844097,9.181754124916814,123.70787340026283,21,Concrete,Deep,2.192693618567781,8.979603850147523,368690.75362351513,4027.948680310655,19040.232012548615,Braced Frame,2.503861010062093,0.5510496480731425,1907.2161992509998,2.939215931327645,0.8002504545930117,80.02504545930117
Very High,0.1764881880013612,1.0196390877678678,0.08168558208371944,1.159021875111749,Rock,0.9151637925488889,8.96441484162969,63.05159788813262,3.975649330306756,85.29749535972606,31,Steel,Pile,4.03659202834023,7.455616133235136,549168.541644762,9472.605363387771,26809.52580721566,Shear Wall,3.1400304360963154,1.87744176143507,313.9824738491608,4.09740077078858,0.8882094152888419,88.82094152888419
Very High,1.462309428161266,1.0767813408473934,0.482950327539448,0.8596861318407462,Rock,1.30815448316174,5.086582558716563,64.16232028640857,8.465008734998781,97.39264481722705,48,Masonry,Raft,1.67062897729419,2.181581839743753,695686.4745889464,7201.764243210201,42566.41903278571,Shear Wall,0.4435372324369251,1.3347381206671014,710.9684178950935,0.2785534819066311,0.33476634187912746,33.476634187912744
Very High,0.4165754637495407,0.6860897348300196,0.10369139411772144,1.4225744516705927,Sand,2.5642106962394786,8.082308364286218,63.24341731553263,0.1023846577268781,85.83156173108532,36,Concrete,Deep,2.4560970059489446,9.46523383061768,766802.8718854046,7664.910373928225,26843.962744334312,Moment Frame,1.1140704445482836,0.10380722345695183,1197.3921327569747,0.11710961715455419,0.507570620952662,50.75706209526621
Very High,0.5258782074907932,1.1887801811761298,0.37104148812494797,0.47479981769892876,Soft Soil,2.6732761996224026,6.276488925472573,55.81909490843776,1.7682949702459239,169.2223758619697,48,Composite,Deep,0.294234902660736,9.099037482694904,215197.5663115076,2803.0099025577024,16898.21765929021,Braced Frame,1.7433339959096723,0.2801176872092187,2176.5270001298527,3.6663101919026166,0.779591096007544,77.95910960075439
Moderate,0.5255195171570383,0.7179012729248014,0.27379195518375854,0.3797622993298694,Rock,1.862745739425266,6.714972824793601,98.654987829806,0.40119304257544763,49.85008824693797,38,Masonry,Shallow,3.721080094090432,4.132684701109321,586894.6894434246,2101.5290332273844,26663.797869007976,Moment Frame,1.906133606412179,0.3896553244822116,3588.4441297867106,3.4509126525432827,0.2644499507590984,26.444995075909837
Moderate,0.4225833269642898,0.17461188705913938,0.4423548850707828,0.7907647926384053,Soft Soil,1.7153554748991096,8.4629275985906,73.49676617514392,3.3486570870991796,6.115581650683102,27,Masonry,Pile,2.204970448057307,2.0038000631650883,916589.9054713913,4246.237534396068,6590.229211515775,Moment Frame,3.4129127519453766,0.4974651543469649,706.8086285379372,2.0886753161416025,0.37158143785170106,37.158143785170104
High,0.10206335092083599,0.6167973501542764,0.2774426344960623,1.675195151471248,Rock,2.9512781257039205,6.3581003531514595,77.91769245085959,9.091076997395378,132.00737995911666,36,Composite,Deep,2.7217220886732982,7.337392757099864,969941.7924342093,7783.388610693462,7370.340806405722,Moment Frame,2.6922045687416682,1.4640479663585786,3702.8949309511945,3.341863919942458,0.831155654556012,83.1155654556012
Very High,1.121082711723195,0.1121201824725223,0.26774505035899804,1.3077170855211,Clay,1.241242251093754,6.918721891529556,87.37381869328374,1.0598260236299788,44.48012580957212,48,Concrete,Pile,0.7505087254916414,7.555251724630502,673337.7904313903,9418.561142652146,35011.26907930278,Shear Wall,1.972331504496102,0.18698113706338154,4282.550612100243,4.771591755401904,0.7700856496204832,77.00856496204833
Moderate,1.4535836997189995,1.9588740954080277,0.09853354218383155,0.8121701621479617,Rock,1.2737904222801388,4.721848480841265,22.348336509859067,6.103456789763624,178.5724515804128,23,Concrete,Deep,4.960228298179697,9.071461403566364,984477.7639519864,4559.633346753075,45955.57220572754,Shear Wall,2.3083136462740854,0.7076833978295076,3274.819896081905,1.3145277031209879,0.971199567916089,97.1199567916089
High,0.4140108765990631,1.9349196986575203,0.0839484516637777,0.9793626885823279,Soft Soil,1.4421077894800796,4.510563632403539,9.296611750411017,4.569809797282497,172.51403429279793,21,Masonry,Raft,1.6518455695272607,1.4739018350597193,592198.4865273337,7854.489528723077,36558.228540937394,Braced Frame,0.1635856861861722,1.8236528134227232,266.44219236759915,1.305040313204761,0.9959740585146502,99.59740585146501
Very High,1.0282660685247913,0.8507950651973796,0.4583280864066416,0.24316211900106718,Clay,1.180066100218392,5.601599428507766,48.806549223261264,9.390835302421543,19.96183752600015,13,Concrete,Raft,3.2479503756629615,2.2753345422463465,470474.7782918866,4968.872384934691,4656.048792210502,Braced Frame,3.8755738686073875,1.117768695810638,2231.2357502908344,1.0125378033446482,0.24074454697137904,24.074454697137902
Low,1.138654857742201,1.4839046232453275,0.164591261226167,1.7737790238393922,Clay,1.6346043160492107,7.562623918134452,51.89398886630804,1.312939511117229,25.745739055745084,37,Steel,Deep,2.989934455301434,6.384239135912641,574008.0860008337,3304.668370776906,20741.884940519278,Moment Frame,0.30092297460443407,0.538338162038686,3317.326708085824,3.647535074871377,0.9004499861736733,90.04499861736733
High,1.2877955307267346,0.7570315869798074,0.18666904522648506,1.2328924179813623,Clay,2.8038352993774582,5.045692020116115,83.08899621504186,2.1990757199720665,101.55846048809993,47,Composite,Raft,3.9684425788399538,6.572183957830743,159926.774550346,7523.018931895553,1125.125825135123,Moment Frame,4.163655715320573,1.9145420299958167,4893.640016306196,1.8306272670395665,0.09451550135006914,9.451550135006915
Moderate,0.6916808758190527,1.3750769984633546,0.3801520055557658,0.5851869163878182,Soft Soil,2.1537652493828636,5.011928814620473,44.93457434895123,0.39246548925378344,123.79841924002416,26,Steel,Deep,1.6104173869854106,1.3024869608350564,431630.1237011184,8082.920272822608,26049.130422956012,Moment Frame,2.7508829549321776,0.496188625017678,4761.45152094275,4.94459635653694,0.7098002089640555,70.98002089640555
Low,0.5241032678966009,1.6303170817873602,0.17007291772898087,1.0958742701659154,Sand,1.7062824069469802,6.3493227361615645,57.514449528886956,4.3959589713506,58.607125809036944,40,Concrete,Raft,3.8284512559867387,4.572388459554926,485484.80037900223,2426.9875437664623,10467.019759210718,Braced Frame,2.686314037000134,1.8111482463226092,2008.730614477598,3.6017796269400417,0.22009938767555093,22.00993876755509
Low,0.5554131876322436,1.8988368649152574,0.4760791608728624,0.2861200223172897,Sand,2.8557037480566727,7.415266673737019,53.18002291283237,2.850545705690078,144.7755547563773,7,Masonry,Shallow,2.036008307291525,6.257455581484442,856196.4087849292,3399.1102694306414,43539.18578770418,Shear Wall,3.5524352760886773,1.4542816504929656,3098.8588075142084,1.9001467445721845,0.3003111569225627,30.03111569225627
Low,1.0976698663379179,0.8604033241143767,0.3692259567304014,1.741922336972892,Sand,0.9066213114468091,7.704323965115687,4.782075591981714,8.712068745514177,121.00862407917995,46,Composite,Shallow,2.1735726360624756,7.641201998365605,770716.1631053248,5200.380012999792,6112.417590585038,Shear Wall,4.31184171000198,1.4836368635479844,4459.534979439846,0.8310115669109773,0.9463211776645418,94.63211776645419
High,1.2434912531078905,1.5882661676164906,0.29911719204413656,0.3971344794017221,Soft Soil,1.262607591384095,5.303028033442686,61.90627476309449,6.088914050657775,68.34070140096816,39,Concrete,Shallow,3.429020127136497,3.8453562260049567,621355.2559635607,2271.9573827853287,1070.2365337044898,Moment Frame,4.718966117750355,1.532229243619216,4163.678924512173,3.0009216009858393,0.2631512367342119,26.31512367342119
Moderate,0.35425955485924376,0.6052640562010256,0.4405666851118315,1.2016515406938642,Clay,2.04495493122387,4.858146663174191,82.97628529165097,6.179498305959447,9.947440168251541,22,Concrete,Pile,3.96457170435425,5.355131437196573,379913.37313245644,9323.925838161029,23106.15611257426,Moment Frame,2.762512447495526,1.0180729309938463,2423.1380788581114,1.5450259401724853,0.6731778691606303,67.31778691606303
Low,0.6193174114208713,1.981631377207932,0.025753348266391893,0.5172725863161818,Sand,2.1542157710249943,8.731786652754948,16.59255425950458,5.365915899124894,151.27930485321096,39,Masonry,Pile,3.4009598533786836,8.326493850808083,227682.8564080242,6117.67216932711,8616.231892361218,Moment Frame,0.8382253367456994,1.6310116647453108,1343.1445879135358,4.536994498351804,0.17812850786325618,17.81285078632562
Very High,1.36271627544881,0.14896223765226718,0.12927428340241517,1.3198543505025109,Soft Soil,0.8870265144377489,5.672998721529458,59.83884165873298,1.0093183385690898,46.87696483589113,23,Masonry,Shallow,4.51942169874153,9.585055575079664,380376.7698688965,1651.4311350310804,37161.33273148292,Moment Frame,4.405291538247735,1.6740242645274557,728.6447366542233,2.2628815593947262,0.09338997757048761,9.338997757048762
Low,1.229370927572635,1.2467047323521299,0.23305313077623407,1.4205963243084778,Sand,1.686685267395691,8.340059239239258,59.76744390019502,4.505684968881017,167.72237997521253,30,Steel,Pile,1.568763341648323,3.0728320785086094,695813.8674111753,2248.2837144833898,46076.80185728835,Braced Frame,0.2992928900135631,0.727368576135473,2465.5017676621333,1.5339848262389157,0.33931702534386443,33.931702534386446
Low,1.4788017638674662,1.3530613651375216,0.11426229119628899,1.2448135391494355,Rock,2.22813872262792,8.385711527082682,17.254311441579514,9.995101378114313,86.95660071057976,18,Composite,Raft,4.522960314089357,3.277379852379066,299885.9091307814,9566.375780586022,3054.9627008257908,Shear Wall,4.05595213652706,0.8066855912505868,3628.0870829492815,2.983903891396336,0.6241961007894813,62.41961007894813
High,1.155947563554913,1.407286558440845,0.3722086884637738,1.1446490824338273,Sand,2.3357552020874834,7.9763516629314495,13.222893799342867,8.368769979375546,117.53010131319425,42,Composite,Deep,0.8281449245282178,9.45836368690488,455542.36092370766,7512.601564117874,20383.523483888737,Moment Frame,3.434065969485676,1.7786258698926614,4850.360080420516,0.7711750547582169,0.24794514375408117,24.794514375408117
High,0.6504732814390911,0.32873639969926916,0.45968480749580887,1.61719745971842,Sand,2.203907785535793,5.259751229936565,98.025142354672,8.945244636254447,175.22500242975536,18,Masonry,Deep,3.365745531343907,4.563200356864153,417431.72313759796,7476.848302797368,49843.93382747653,Braced Frame,4.5331652763724355,1.0542112282547533,4315.98377887429,2.851590456734104,0.300168798671674,30.0168798671674
Moderate,0.9268929675924928,1.8832065885989477,0.21246128984553078,0.23366540868258867,Clay,1.505239093594034,8.1981065666439,39.978197795650715,8.249940956540344,173.4064851793909,46,Steel,Deep,2.8286271266248524,7.465134920686684,777310.5606015072,1188.736643048018,36900.92653003276,Moment Frame,4.49756943621249,1.7352175569243193,1060.9927284784003,0.374946244746727,0.7087298186064551,70.87298186064551
Very High,1.0254199559462485,0.44424823019515736,0.17172416745583557,0.6625551018263318,Soft Soil,1.005744271915401,7.96162751658714,23.5147511436294,1.1201127649667286,77.44631717249679,10,Composite,Shallow,2.5742525139948293,6.510387058568886,889597.7091471371,9005.338958234997,47706.19454158455,Moment Frame,0.3604550186416904,1.2572712288980366,3612.901727771226,3.073754540561317,0.10279602298136903,10.279602298136902
High,0.2098381428439735,1.283231466155698,0.4808138153366456,0.5220887153724382,Clay,1.7396473821225351,7.185253455477977,17.96112990098312,2.3517377152415166,45.73333407939441,39,Masonry,Pile,1.6923777385384557,3.5702891181465066,714402.408970428,4715.4859443067435,9040.080975591623,Shear Wall,3.086287395160794,1.1911998359305944,1481.0512065992307,2.697802835117002,0.44690509180350746,44.690509180350745
Low,0.8622957427454111,0.5230845503338614,0.22298136398094287,1.7796237355112168,Clay,1.083259762209722,6.017409158260287,67.09256964474027,0.13090434842845533,156.15348515707595,30,Concrete,Raft,2.6179171774795242,6.882059997622225,374522.1478863824,6767.314565079299,11847.059415105725,Moment Frame,0.7108901303241887,0.07165209702294513,3433.1893424463024,2.6517533124809614,0.9417345298822242,94.17345298822242
Moderate,1.0930491598616534,0.6837111923404147,0.24503515182419233,0.7619626254336849,Clay,2.884772048745468,5.681288719199449,61.3350844354006,3.1047502362933037,89.45063970241559,26,Composite,Raft,0.9765121106465755,6.90009310861276,461518.1965270929,9617.047581583132,8585.75078924447,Shear Wall,0.48449619754586826,0.563009851703092,3345.7370292808246,3.4524054965831255,0.396971662414225,39.6971662414225
Low,0.33424982560148453,1.1382712292834363,0.17647328629861078,1.345441588708678,Clay,1.8453759052497822,5.048501454361615,64.71166017575433,1.1752132832302766,42.4481887440058,7,Steel,Shallow,1.9727405322160427,6.331988668681686,186182.64635103536,1450.1176133872905,15816.082655020975,Shear Wall,2.29655801457058,1.009094717335613,1398.5314844814302,0.317837410690755,0.4342010279774393,43.42010279774393
Low,1.19288440439578,0.8926674952726953,0.4548646880330571,1.264032778597708,Clay,1.497970183585109,6.793906801053922,9.712596723633773,4.780654118485671,181.3629417518443,7,Steel,Raft,0.6736684039226115,1.8969474236456159,209692.57537827935,5081.626365122498,36494.81934812354,Shear Wall,0.5782279452588291,1.178761172548055,1210.223670075568,2.3526841766884514,0.738204303607289,73.82043036072889
High,0.9172818927197562,0.404428641855362,0.28490878615764353,0.46053810371154213,Sand,2.48586895646158,7.13367393979431,89.45992376634526,6.803562136881629,43.63031787701204,5,Steel,Raft,2.944863678974334,9.956546401366339,206077.93915018925,971.3209982883519,9082.386377151222,Braced Frame,3.6667216772517053,1.264564712711461,564.4919248151829,2.2757894488978354,0.7790115220328468,77.90115220328468
Moderate,1.4331104999766324,0.42477916459961174,0.3813251190036407,0.5062960563596373,Clay,1.8954869036809807,6.117025457321042,39.53737328409578,8.757602420876962,10.03239779729006,1,Concrete,Raft,0.6596858537582093,4.603748150537447,174057.03968324471,5245.681521575297,26687.467856281135,Braced Frame,4.847809481487238,1.4352834217731179,300.17120218290216,2.352933965028247,0.7696063897805245,76.96063897805246
Very High,0.15939121748964838,0.8944750975093193,0.4060915524570923,0.578183758040158,Clay,1.4820748528273904,6.639115804563908,32.023571236605434,7.517249934399892,8.954594884646895,46,Composite,Raft,0.9696542907447951,6.7442588685729,220602.16708367364,2896.464399631925,14191.286036605505,Shear Wall,2.8909564931371547,1.3159045302643273,4299.332741339532,4.901465758220182,0.9978670249135722,99.78670249135722
Very High,0.4714565925776537,1.5388376587234514,0.17158267191671184,0.7989163730409446,Soft Soil,2.586329033259764,6.1358150581617,46.77378327752618,9.391997398207202,126.35149450858154,18,Composite,Pile,0.6102406471399103,8.971855247013574,242553.79244943973,9155.12252810177,41630.59317770885,Moment Frame,1.2523274608522645,1.6986676477176428,296.7545034434563,0.7824645184068757,0.07145108748705731,7.145108748705731
High,0.9421754310197537,1.8061328290107983,0.21741347132886965,0.4983526116058955,Rock,2.7077347322024687,7.384527257943155,39.616540509015195,0.633593074898509,134.0266368399184,13,Concrete,Raft,2.030291071769974,4.809596395778527,156253.64660775126,4285.678695594325,1323.0278616080116,Shear Wall,4.231711318474438,0.5979859823461516,489.2687742993148,3.4831058095920038,0.9822532846329993,98.22532846329993
High,0.5151838770883029,0.25984255829282743,0.42438741542872604,0.13340752066964126,Sand,2.2806179658350896,8.555666435084536,86.49412331077544,0.22058037062376026,65.65313248611187,25,Composite,Deep,4.241400581208072,7.9653255112499375,658247.6857900156,6521.788237494752,11932.632968394673,Moment Frame,4.280206537157127,1.286724271475126,1232.3175750725893,2.069781073154927,0.9501896169973988,95.01896169973988
Moderate,1.1001938296997391,0.846897424362862,0.18226442048622932,1.5949681965722324,Sand,0.903321729296868,5.237641179211252,92.99683654459132,6.647247326978505,67.40214290317736,40,Concrete,Shallow,4.5531026798423735,9.746419822114653,990881.4578530897,8672.729015738216,30656.797121036918,Shear Wall,3.6906512645855325,0.11180743325057987,4443.908725888266,2.607459969190117,0.8521389002595581,85.2138900259558
Very High,1.1626073955307035,0.29046657107346563,0.3971736315924738,1.741536713347503,Sand,2.0459103363663704,6.216339644564055,31.041868428511016,2.964588861200238,71.20131343668884,8,Concrete,Pile,0.5450693820800643,4.230412842277435,885227.4074196432,9845.072654963176,5738.814596718285,Moment Frame,3.1141477055854194,0.9655782538708355,1698.054784089847,3.8357301386953617,0.4541255758520417,45.41255758520417
Very High,0.24352234969306422,0.13152571320193598,0.4705551689646441,0.6806696579536655,Clay,2.4792488063940197,5.133908717778876,86.52964493853553,2.609660059447154,137.63091661798134,10,Concrete,Raft,3.2458406761358094,4.64742613209463,93322.5876347819,5286.284018121187,23849.29858135349,Braced Frame,4.352183028283448,0.5433856022442661,999.4078094101312,0.871139668610057,0.8709023716339244,87.09023716339243
Very High,0.8193962498894748,1.3572654970235176,0.3119819761609355,0.6754616950233038,Clay,1.1003066265838808,7.312246966835244,78.37078982377365,3.3757821681685636,16.336089250231574,32,Steel,Pile,3.4850500380419525,9.150184530969119,451905.8687368886,4829.698177183831,22374.157527636115,Moment Frame,0.9001292417880394,0.7679654251064452,3591.999704185721,3.8415675419188124,0.22083241230609518,22.083241230609516
Low,0.8124467778274782,1.2446539397365168,0.3710720164384926,0.11205608171643068,Clay,1.3030756530461276,7.779917292698681,93.14995956213141,2.7709809731344053,186.1776887748085,17,Composite,Raft,2.762095723673716,2.436785810336647,866345.0502711337,1219.5266303163578,42773.62733426642,Shear Wall,4.664840619085819,0.7157788760122686,1629.3952865999943,0.44462083515375406,0.7916558353878302,79.16558353878303
Very High,0.6169930783017574,0.40973631624828377,0.4027435587085263,1.256426170161636,Soft Soil,2.7414892311499006,8.693607296688551,25.329280906402897,5.163220422385714,48.391603614602055,38,Concrete,Deep,3.4015273350538204,1.2573535452349809,177941.07709239662,621.0199617035429,31644.462465173852,Braced Frame,4.7412954311317845,0.13025704753374906,1700.1648584771715,2.468216604928182,0.18523830312105416,18.523830312105417
