Seismic Zone,PGA (m/s²),PGV (m/s),PGD (m),Spectral Acceleration (g),Soil Type,Site Amplification Factor,Historical Earthquake Magnitude (Mw),Fault Distance (km),Seismic Wave Frequency (Hz),Building Height (m),Number of Stories,Structural Material,Foundation Type,Natural Frequency (Hz),Damping Ratio (%),Mass of Structure (kg),Axial Stiffness (kN/m),Bending Stiffness (kN·m²),Lateral Load Resisting System,Predicted Max Inter-Story Drift Ratio (%),Predicted Max Roof Displacement (m),Predicted Base Shear Force (kN),Predicted Structural Acceleration (m/s²),Predicted Damage Index (0–1 Scale),Predicted Collapse Probability (%)
Low,1.406094807597541,0.5442443828768218,0.4226747847994246,1.5032478227726689,Rock,0.844267788076763,5.754923668174342,58.11895586197693,4.457469627518911,199.93627502220798,15,Composite,Shallow,1.3217154341268573,9.180001043642006,855262.8893194406,6283.619878735713,32345.40104579603,Moment Frame,4.372762632585953,0.9386251434952373,3707.9341498957533,3.7361472027279445,0.8153620034711797,81.53620034711797
Moderate,1.2585088478225097,0.14504473192458492,0.19813161559054118,0.3492341106120054,Clay,2.4559997032171474,8.775950426394436,28.179913889304018,5.173042658628898,38.44692528850146,15,Steel,Raft,2.550292216731277,8.394324167058222,613065.6059460043,1121.911345402637,47638.57248766913,Moment Frame,1.328243970086189,1.9893122831031913,1295.681437261114,1.0435021312380273,0.6145291332640569,61.45291332640569
Low,1.0760931346734914,1.686399690819367,0.026580466128823088,0.3714327939241563,Rock,1.8423012435317305,4.784682023193037,82.58535455795305,6.759864753854318,155.45155917591362,48,Concrete,Raft,2.076204075371977,9.753247292961989,934733.6249663063,4113.599901865497,49135.658390845376,Moment Frame,4.305074092922083,0.6048827531046024,4488.962236142846,3.877486665573575,0.09803127951352553,9.803127951352552
Moderate,1.1000572900289967,1.9519121324922477,0.201536259347133,1.4431415249514443,Soft Soil,1.7828987494471353,7.213562385140647,1.5270948665353616,3.9325920388143687,48.56544626127688,40,Masonry,Raft,0.6305981669102291,1.5241400443961042,882237.1585512039,534.2611430113842,33016.34187548909,Moment Frame,2.5384272380046897,1.474930483619819,2829.037306091809,0.9173812839361418,0.8953195553572253,89.53195553572253
Very High,0.7464026013383667,0.3573731199099125,0.3372043586622608,1.147694272202046,Sand,0.8156123714887519,4.757097237044984,56.917097125753216,2.5879461027073525,20.765126320434526,20,Steel,Raft,3.202670910667947,2.405595973968885,693182.6059557816,6344.661240173872,26578.07105745066,Moment Frame,3.015158163264044,1.100098786491667,2712.2669703034494,4.0162699089918945,0.5779571954552444,57.795719545524435
Very High,1.3893923295352062,0.5398029061540665,0.2257248425046156,0.17626294796711894,Clay,2.6026761081262846,8.521983844928751,34.58113969591988,1.7453853144065803,175.61199824837652,15,Masonry,Shallow,2.577032924823422,1.9478130318082796,674931.5268790608,4541.444024184714,30788.082864779113,Braced Frame,4.218943050270311,0.6571983480576327,1360.5235635777376,2.3977843074150043,0.6562482781371146,65.62482781371146
Moderate,1.0724335981545996,1.7499780954991746,0.37473261227933885,1.1583298837858789,Rock,1.5916147814004464,6.884140756815244,32.945687000704204,3.559793783372993,172.45649554222393,35,Composite,Shallow,1.5208353291323993,7.150745190643383,252505.99227231272,1706.6973129697346,19739.74154765386,Braced Frame,0.24495593827166387,0.18831805018091813,4183.716983643132,3.4547278261292234,0.28351003565161004,28.351003565161005
High,1.1205734863181431,1.8602812161167512,0.17913423230486328,0.6251601288344023,Rock,1.9896843888611946,7.512067578432582,64.84572606262678,7.443884104937103,83.69622652767227,6,Composite,Deep,2.473689249936183,6.454090663724289,160915.3188001081,3315.49226498781,49385.37423104379,Braced Frame,1.8784187016606644,0.43955722252277263,2885.1102768139317,4.595291646009024,0.8716355039228065,87.16355039228065
Moderate,1.3063672653022833,0.8972920273329396,0.31773732641091074,0.7268327643004381,Clay,2.290061509938451,8.242082666597037,85.2969604820854,7.591378610103549,141.96724779538323,30,Steel,Shallow,3.9214304883080144,4.234016794485337,444623.75847035844,5911.776640233283,35546.04171534608,Braced Frame,4.096897548497882,1.5658885435855854,819.8069121308685,2.1012654657072956,0.5452007351535635,54.52007351535635
High,0.4837002250790674,0.19618269731124083,0.09402348262213332,1.4085434111046964,Sand,2.3457850681634147,5.17639780117786,61.3103437479393,6.702363328173682,113.62785687336384,8,Composite,Raft,4.0479572614787065,1.5168113146202051,227251.0375184685,6738.776996094782,15259.332924579068,Shear Wall,4.088378440628443,0.5652501530631043,1071.176274361575,1.241491881431587,0.4211202842915035,42.11202842915035
Low,1.2298992654133842,0.17484448401635688,0.3749353488858335,1.4785898275434382,Sand,2.9031561294173596,4.673662028721602,85.46412488602553,2.4168789355380587,171.326442166381,31,Masonry,Deep,3.317725417996972,6.756957856418868,147295.881793871,4892.190856802745,3830.5486496313524,Braced Frame,4.258570841726371,0.29716193999958784,2367.8667486621857,4.349104073426616,0.5342817452283175,53.42817452283175
Low,0.37333684413908885,1.19050474553112,0.2733022884376999,0.7806062656277121,Sand,1.96894789712054,8.454965156607834,27.195114076221966,5.922053833961507,66.4359140171376,48,Concrete,Deep,2.4451896003207865,6.13108436603551,337210.3966092488,8137.611602863985,3191.374528446423,Moment Frame,0.9291579106835073,0.6692836975167394,3909.2270209611233,0.891921575713413,0.7033130814677766,70.33130814677766
Low,0.5834787331428429,0.84650070689704,0.10282812988475369,1.7101599912108032,Soft Soil,1.6793830121437407,5.917199523565197,52.43068362173313,5.749827649610795,107.11611799980211,47,Concrete,Deep,2.9635982681784707,2.0161288995455418,867465.445656816,1568.183911178364,11040.736045800419,Moment Frame,3.5588444293170047,1.1722454749331035,4699.511604403953,3.1942326540033417,0.6950478756992701,69.504787569927
Very High,0.5698546359777797,0.15443961239754359,0.14666367557540583,0.7909866205185228,Rock,2.8981479782817576,5.080405085672243,45.60311736764053,4.894235361286282,99.64761238488734,32,Concrete,Raft,2.0480737825069624,9.180187340263426,66290.74631744316,1303.1843648178738,12412.739658402468,Braced Frame,0.817866368476551,1.4098916969370983,3334.3182203658866,4.623941111399011,0.3575771009578127,35.75771009578127
Low,1.469935655744797,1.208179545393858,0.37455574558233434,1.412121259891187,Rock,2.2126425170561466,6.608075566891889,2.1528450508065253,5.544791965200256,74.01163612008746,45,Steel,Pile,0.8074704463723434,2.7905473870479147,328005.79763606685,920.3205556691789,21337.22920374111,Moment Frame,3.9469802438600246,0.7808560255694642,2555.409085313576,3.404543886522998,0.3852582801062605,38.52582801062605
High,1.2991521132470976,0.1214748195191427,0.24181801659509883,0.9225913497592404,Rock,1.4559307838084226,7.192377340632085,56.12440217093327,4.968727262974314,178.8337375884926,15,Composite,Raft,2.050978867453241,7.691582369294707,452849.5759537677,5590.364474769701,11527.454570176438,Braced Frame,1.301117421827087,1.0013128425859144,1291.1232886845223,1.058837318705075,0.5622381928384271,56.223819283842715
Low,1.0816378062263636,1.5960067204836186,0.10879968875614303,1.6258049550875429,Soft Soil,1.0782213398878566,4.6393677154012956,66.49090809047132,5.698018024133671,37.34619530919442,18,Masonry,Shallow,2.7455972291342445,8.965682762886534,535041.2621345222,7209.20119022735,31914.611112225484,Moment Frame,3.7153068651760357,0.9152842171465885,3380.6964042559603,0.8461913636398415,0.9244071207169879,92.4407120716988
Moderate,1.117879466261546,0.6822223631364059,0.4836683239947785,1.6431941142053037,Rock,2.653619903223399,5.737030462156895,59.599526037487934,7.183508950749174,34.154184706535744,13,Composite,Shallow,3.0744032703228035,6.215274916243376,222498.6329638398,1739.9532945140322,11351.481809718507,Shear Wall,2.3295079307870656,0.027916666347619502,4912.0867914748615,1.3362971023928965,0.7454302669659755,74.54302669659755
Moderate,0.8869019121635995,0.17649020571754098,0.35784738488862705,0.24860857338084255,Soft Soil,1.5967995261471337,4.6475994342460325,73.89170997955873,1.1853191245940535,117.49735938793651,24,Composite,Raft,4.69184468506218,3.221640147684262,966009.1898461295,6569.983407626229,10205.950408116152,Shear Wall,4.932690976308584,0.797244944963138,2407.301253919213,2.0178934809972344,0.39041498536555663,39.041498536555665
Very High,1.4259269339519267,1.2178692198679912,0.4786102814373583,1.6920386632273838,Sand,2.2530333870017487,6.391509251379746,57.56261331685464,7.521294946275335,133.2113748470637,40,Composite,Raft,3.9312005361469575,3.7832366586262722,599929.39139358,5031.00377880058,24090.612647218124,Braced Frame,2.9414797706714766,1.1787664222424432,852.6023005049822,0.8798792560645252,0.33703262655176114,33.70326265517611
Moderate,0.7947622540353061,0.8556003874228039,0.21412541763481127,1.5034092305847067,Clay,1.835796122604976,8.5279501307981,7.608275230224935,1.4452728862631827,42.950754593290206,14,Concrete,Deep,0.9295642949344511,8.971727803469491,546005.019704192,9879.772751435594,44544.76136686712,Braced Frame,3.1996388846794024,1.1441899856673645,561.5358781981839,4.009288925562457,0.5236366741373145,52.36366741373145
High,0.6327247938178523,1.950220785378584,0.2380750700051685,1.4452282143315338,Rock,1.2376455155490844,8.921935851721061,12.528106884386432,0.7596171842627095,81.1899012396517,28,Masonry,Raft,1.0360745919340546,3.684314407388362,58381.4594838241,7315.999288030909,23946.968881553075,Braced Frame,1.9040012178713086,1.5020374410851511,1382.8181038649582,1.8494731787835548,0.8699913689145947,86.99913689145947
Low,0.32824947170422736,1.1339774587570342,0.44907965287632456,0.4415492774653882,Rock,2.1237105389650233,7.366713990766324,60.05098317685129,9.76318889359253,189.57994938085503,11,Masonry,Deep,0.6823748443508193,7.715714349855739,511429.6104262067,6745.996684320446,21278.588484036183,Moment Frame,3.699148773452422,1.344048061766324,2868.7379941551553,4.686825005972359,0.008679241595875187,0.8679241595875187
Very High,1.2006879131654813,0.6229544439703157,0.26299962078244693,1.4687026548829305,Sand,0.9335027516915011,5.227369622030663,28.222940005390377,9.57421851181737,53.09039742468143,6,Composite,Shallow,3.7432722906604057,9.911486910298647,845787.0979824249,5919.272481287273,29326.65046552573,Braced Frame,2.5249396414136918,0.5608455262611459,4736.686240402078,4.228205233773088,0.7104860682895641,71.04860682895641
Low,1.128221504905828,1.447933842804552,0.3539321770409279,1.5452256489645626,Clay,1.7093534117166231,8.576322254996876,8.884867774441819,0.6983217949115841,135.33033691289185,25,Concrete,Deep,3.589386936760914,9.9983504742641,258662.31589868056,9974.978724722187,13603.470258829795,Shear Wall,0.18852651196973433,0.5187309064023357,1530.867161167526,4.553209487728264,0.29451225543776693,29.451225543776694
Low,0.6380970539337888,0.6158348048311515,0.12683426587026944,0.5915555685720566,Soft Soil,2.0025528672600763,6.823115204400272,43.53067160140613,4.488209070602125,149.3291317710302,1,Concrete,Raft,4.93454192814503,5.801317734423983,383647.18996709236,9814.362123118484,18318.391170031286,Moment Frame,3.0820498295906615,0.933642178146234,1561.686298289442,1.5430143035173463,0.20839748021616988,20.839748021616987
High,0.1352707795429211,1.8180622536743738,0.22391650788261763,1.7188421332159505,Clay,1.759303343060874,5.191871904463131,55.87793721028188,1.94382488916777,92.38509639570611,25,Masonry,Shallow,2.7057124047888736,8.439002171074879,69542.89145331077,5612.093692197955,11477.927527689399,Braced Frame,4.169251993103871,1.4686096387660932,2431.8393126053525,2.911284564728732,0.012137996816758867,1.2137996816758867
Moderate,1.274596258805215,0.8119717439640152,0.06260148303936719,0.18476224887857923,Sand,2.44707878555218,8.647770012532476,33.54585284661105,4.904914481630739,187.81756741811867,2,Concrete,Pile,4.166791658474633,9.912248811290796,978081.1385221054,4824.241799675486,29018.6897357765,Moment Frame,1.2603286732962085,0.19671634008616914,4596.784558740985,1.6751026384075516,0.896590620625477,89.6590620625477
Moderate,0.11598517683570309,1.14475026927479,0.10378403790260388,0.35484573052013746,Sand,2.6214348999996875,7.908610728253963,72.32293652035202,8.318754705695914,148.64806336766415,32,Concrete,Deep,2.9669113214853806,4.3720560085778395,113319.20727163876,4890.091765666647,35171.99051689155,Moment Frame,1.1832123999174047,1.897169900241963,2124.3225004159917,1.3590477067461537,0.9122484700064406,91.22484700064406
Low,1.0851796914806713,0.19608889726603485,0.0014707642185479125,1.0138879346875744,Clay,2.496734762872992,7.792673727254182,64.73329020202323,9.511056569954613,94.29529307287508,13,Concrete,Shallow,4.395616220131698,3.271686265632753,903310.0677140909,4569.252708071974,34011.23340853802,Braced Frame,3.0835422972844255,1.090874716175799,1154.985489711619,3.0747252278924986,0.061417441643820125,6.141744164382013
Very High,1.45835995361648,0.9096303521092384,0.020593260772681456,1.0788472009079264,Soft Soil,0.8853884851859647,7.691313167074821,33.949017748075526,6.37910126917022,116.02036434633833,33,Steel,Deep,3.6609009886532076,2.028100202579649,347338.328471432,5548.28391646506,13486.073080273327,Moment Frame,4.10809845448492,0.6197527059176664,857.4980291597682,4.108177364938932,0.5218153230513606,52.18153230513606
Moderate,0.7127258594074848,1.6814907253558904,0.48866462776528774,1.1967551416115358,Soft Soil,1.227083294981139,5.401529194933991,75.7323803619475,3.603666105396989,140.05962146789463,32,Composite,Shallow,3.285843271958014,2.268096742658135,608178.5818865846,3099.050544236522,39202.762081650384,Shear Wall,1.3231396554335217,1.3898485494540376,2312.2260778987843,0.5586292500206058,0.15257445867360986,15.257445867360985
Very High,0.4289627669943339,1.6307327301903496,0.12193449387324438,0.12884751983629297,Rock,1.9805365203803036,5.449530112683867,65.22080921077051,6.072923099881524,120.47708518369755,24,Masonry,Shallow,2.912588820718642,8.68200727258597,695349.7629677032,9304.493439587053,13541.729597246582,Shear Wall,4.668086991090892,0.09900437432377256,4013.3533068642405,1.4512669306937502,0.7586875546482741,75.86875546482742
Moderate,1.0868194140607343,0.5262052618216999,0.331992044042497,1.7326235168576216,Soft Soil,2.856608488976363,7.597318492922648,64.10709249307232,3.1888129304736585,176.3460288460848,27,Masonry,Deep,3.670258517326279,6.298507812763666,183787.70905955878,5157.185773888385,8365.266012120384,Moment Frame,4.64419804773959,0.9739498624082952,1492.1944033857285,1.1051574863420235,0.6653914717661469,66.53914717661469
Very High,1.2439793988218193,0.529550234920069,0.41971074970100614,0.17579975764804479,Clay,2.6369049051146574,5.4887523754967855,55.78934237791974,9.107254044237397,74.59328914467822,4,Steel,Pile,2.2143384448208505,8.863382578532374,471571.4088913187,8499.074212466787,18140.628685672524,Braced Frame,1.0826296923488734,0.9770795984529799,2586.9870641916823,4.0119158484647155,0.2971308129551443,29.71308129551443
High,0.8650024425089862,1.65288009320515,0.27577956915904556,0.34320531962978407,Sand,2.6535759183739636,6.47402263561372,2.1275771407667268,8.716964584747785,63.47771931088196,24,Composite,Shallow,0.6635675873871877,8.105095801289515,359192.7952343102,5015.3849093423905,30289.460369373264,Moment Frame,1.392543619078397,0.33233081696960715,3034.890948491618,4.673523158151875,0.11696028104036538,11.696028104036538
Very High,1.4538493853586048,1.8677569983217184,0.07741910554189414,0.12382467979429687,Rock,1.467058026271285,8.019008215172736,69.95421116421203,5.6264943277686434,46.69858345157654,23,Masonry,Shallow,0.3919334182296359,7.06370167043216,103772.34232519206,7323.757602147308,7958.089121415502,Shear Wall,3.5329341736459914,1.6764017537243474,2279.8285377065918,0.491719279898459,0.8312206628073886,83.12206628073886
High,0.17233621032114554,0.28118575041870675,0.364330102230747,1.063659336599961,Rock,1.7447853735731458,8.027786331440284,38.22813731980649,3.3155092622655697,12.36767877259605,29,Concrete,Shallow,2.499313911724035,6.483809727161747,841533.9716735217,3700.37866252751,32756.268493314357,Moment Frame,4.7634922342196875,1.5956561161737057,998.8666946987825,1.9581457320654811,0.674252479284851,67.4252479284851
High,0.8067138376263393,0.955111414909828,0.30052545363969196,1.684853702665653,Sand,1.8355530840950625,6.539677976366368,94.3183613057069,3.004557788271486,13.38772305411079,34,Masonry,Pile,3.0765995946566784,1.4350501376028366,92909.36867260384,6435.665148465975,43290.33181642106,Moment Frame,3.578425175003942,0.31393746496288094,4612.641105777534,4.581094309321418,0.006819945002552785,0.6819945002552785
Very High,1.1058355262515702,0.741163130032035,0.3658940440843402,1.2321101823367893,Soft Soil,1.146217483369803,8.064854722238604,81.98049233664332,0.43083814758008865,174.66076265631014,21,Concrete,Pile,0.578475346739002,8.85047676402873,670595.0615096735,5234.528731783734,15363.885002645457,Shear Wall,2.2800102441206365,0.7340163141911212,2848.9737144106957,1.7887272806768622,0.6278717809361053,62.78717809361053
High,1.3076966596088506,1.7543080653691348,0.38510356480568647,1.4985176964167264,Sand,0.868349886537804,8.273798082891256,59.18175248359991,8.176626425150422,137.28666354915194,30,Steel,Raft,1.5771370347780906,4.760578555117428,348373.50759885466,3987.5854370692937,23060.124189640854,Moment Frame,0.9281065974898652,0.209854817695467,3659.2152003737333,3.592041037937146,0.8102960276963459,81.0296027696346
Low,0.35095785667090607,0.25869733789203564,0.4877297734746878,0.12257804587958615,Soft Soil,2.8831863788131376,7.446490880779171,25.966016200107674,4.558793809086179,133.8038210101148,26,Concrete,Deep,1.745754588682338,6.038081713642528,232522.86084177328,8874.784480146009,12187.210855633728,Moment Frame,2.3589482593141438,1.6987314261100017,3198.412876917768,0.5932652939447808,0.5907680595764828,59.07680595764828
High,1.220004874469154,0.5011392908602711,0.28720807673332827,1.0214260074155344,Sand,1.329567688459715,5.527916335387891,21.16802193448899,3.318815991162618,124.85534969230278,20,Masonry,Pile,2.9014185689996057,1.1975815168931865,683731.748768768,1570.7609861146352,18701.82472444935,Braced Frame,3.073162180655717,0.6534070064597953,4990.33770755149,2.2774989048994976,0.42471367667671966,42.47136766767197
Moderate,0.8737899060059633,1.5296898414143392,0.1714789152326103,0.8812570617593871,Clay,1.327887588191989,5.733053011734964,34.698098930077364,4.7639925144777635,170.59773321535044,16,Masonry,Deep,1.5367157890053875,9.424661516765083,595810.8287998956,5125.769909031548,2076.5579693228633,Braced Frame,1.7216644028875867,0.884239452636729,2308.735165471347,2.5661738003989796,0.583918378542315,58.3918378542315
Very High,0.6551751547859485,0.1974583130643096,0.3245838138932183,0.9482455051753481,Soft Soil,0.983433918291271,5.916785199339309,48.18022641442183,8.205506105501055,98.65205050479736,3,Masonry,Raft,0.659113277868832,9.124664149828012,349493.4445060884,2346.506196028299,47734.700414428524,Shear Wall,2.6002633238804402,0.6545051805409272,2153.6132478305126,3.8125539821267957,0.6197120567473473,61.97120567473473
Low,0.28440104001073097,1.0358172233571497,0.03515191391207044,0.22276241506981953,Clay,2.8427170542763127,5.025618484802784,30.31048549385576,1.3336806563044599,174.73011156886855,49,Steel,Deep,0.9913123565434405,5.88950226926295,537312.7108462772,8680.023366567119,21378.62044739756,Shear Wall,0.7380492288106592,0.6269517727652525,1832.692337145531,1.5152407878411487,0.6400346239421308,64.00346239421309
